{"type": "FeatureCollection", "features": [{"type": "feature", "geometry": {"type": "Point", "coordinates": [19.040235, 47.497912]}, "properties": {"Place_name": "Budapest"}}, {"type": "feature", "geometry": {"type": "Point", "coordinates": [19.503304, 47.162494]}, "properties": {"Place_name": "Fels?veresmart"}}, {"type": "feature", "geometry": {"type": "Point", "coordinates": [19.503304, 47.162494]}, "properties": {"Place_name": "Munk\u00e1cs"}}, {"type": "feature", "geometry": {"type": "Point", "coordinates": [19.503304, 47.162494]}, "properties": {"Place_name": "Zsolna"}}, {"type": "feature", "geometry": {"type": "Point", "coordinates": [19.503304, 47.162494]}, "properties": {"Place_name": "##sz\u00e1rnya"}}, {"type": "feature", "geometry": {"type": "Point", "coordinates": [19.7059592, 47.92414040000001]}, "properties": {"Place_name": "P\u00e1szt\u00f3"}}, {"type": "feature", "geometry": {"type": "Point", "coordinates": [18.0677287, 46.9100184]}, "properties": {"Place_name": "Mih\u00e1lyka"}}, {"type": "feature", "geometry": {"type": "Point", "coordinates": [23.8775791, 47.9557094]}, "properties": {"Place_name": "Aknaszlatina"}}, {"type": "feature", "geometry": {"type": "Point", "coordinates": [18.0012442, 47.592676]}, "properties": {"Place_name": "T\u00e1rk\u00e1ny"}}, {"type": "feature", "geometry": {"type": "Point", "coordinates": [23.0332798, 48.5637949]}, "properties": {"Place_name": "H\u00e1rsfalva"}}, {"type": "feature", "geometry": {"type": "Point", "coordinates": [23.2972476, 48.17346329999999]}, "properties": {"Place_name": "Huszt"}}, {"type": "feature", "geometry": {"type": "Point", "coordinates": [19.503304, 47.162494]}, "properties": {"Place_name": "Ilosva"}}, {"type": "feature", "geometry": {"type": "Point", "coordinates": [21.2784255, 46.6473027]}, "properties": {"Place_name": "Gyula"}}, {"type": "feature", "geometry": {"type": "Point", "coordinates": [19.503304, 47.162494]}, "properties": {"Place_name": "Ruszkavoda"}}, {"type": "feature", "geometry": {"type": "Point", "coordinates": [16.3718643, 48.2081664]}, "properties": {"Place_name": "Wien"}}, {"type": "feature", "geometry": {"type": "Point", "coordinates": [19.503304, 47.162494]}, "properties": {"Place_name": "T\u00e9cso"}}, {"type": "feature", "geometry": {"type": "Point", "coordinates": [17.6503974, 47.6874569]}, "properties": {"Place_name": "Gy\u00f6r"}}, {"type": "feature", "geometry": {"type": "Point", "coordinates": [16.8105793, 46.31681380000001]}, "properties": {"Place_name": "Als\u00f3domboru"}}, {"type": "feature", "geometry": {"type": "Point", "coordinates": [19.503304, 47.162494]}, "properties": {"Place_name": "Domb\u00f3"}}, {"type": "feature", "geometry": {"type": "Point", "coordinates": [19.503304, 47.162494]}, "properties": {"Place_name": "Gice"}}, {"type": "feature", "geometry": {"type": "Point", "coordinates": [19.503304, 47.162494]}, "properties": {"Place_name": "Rimaszombat"}}, {"type": "feature", "geometry": {"type": "Point", "coordinates": [17.1002994, 46.2565653]}, "properties": {"Place_name": "Cs\u00fcrgo"}}, {"type": "feature", "geometry": {"type": "Point", "coordinates": [23.6229395, 48.4851578]}, "properties": {"Place_name": "Als\u00f3szinev\u00e9r"}}, {"type": "feature", "geometry": {"type": "Point", "coordinates": [17.1634865, 47.11997830000001]}, "properties": {"Place_name": "J\u00e1nosh\u00e1za"}}, {"type": "feature", "geometry": {"type": "Point", "coordinates": [19.503304, 47.162494]}, "properties": {"Place_name": "Berett\u00f3"}}, {"type": "feature", "geometry": {"type": "Point", "coordinates": [19.503304, 47.162494]}, "properties": {"Place_name": "Szobr\u00e1nc"}}, {"type": "feature", "geometry": {"type": "Point", "coordinates": [21.26799002436191, 48.27296063205583]}, "properties": {"Place_name": "Hidegpatak"}}, {"type": "feature", "geometry": {"type": "Point", "coordinates": [19.503304, 47.162494]}, "properties": {"Place_name": "Beregbr\u00f3d"}}, {"type": "feature", "geometry": {"type": "Point", "coordinates": [19.3605431, 47.6007732]}, "properties": {"Place_name": "G\u00f6d\u00f6llo"}}, {"type": "feature", "geometry": {"type": "Point", "coordinates": [19.1319344, 47.561541]}, "properties": {"Place_name": "R\u00e1kospalota"}}, {"type": "feature", "geometry": {"type": "Point", "coordinates": [19.503304, 47.162494]}, "properties": {"Place_name": "Sz\u00e1szovka"}}, {"type": "feature", "geometry": {"type": "Point", "coordinates": [19.503304, 47.162494]}, "properties": {"Place_name": "Podhering"}}, {"type": "feature", "geometry": {"type": "Point", "coordinates": [19.503304, 47.162494]}, "properties": {"Place_name": "Keselymezo"}}, {"type": "feature", "geometry": {"type": "Point", "coordinates": [20.9654647, 48.1026673]}, "properties": {"Place_name": "Gesztely"}}, {"type": "feature", "geometry": {"type": "Point", "coordinates": [19.503304, 47.162494]}, "properties": {"Place_name": "Igl\u00f3"}}, {"type": "feature", "geometry": {"type": "Point", "coordinates": [22.287883, 48.6208]}, "properties": {"Place_name": "Ungv\u00e1r"}}, {"type": "feature", "geometry": {"type": "Point", "coordinates": [22.5089067, 48.5412136]}, "properties": {"Place_name": "Szerednye"}}, {"type": "feature", "geometry": {"type": "Point", "coordinates": [19.503304, 47.162494]}, "properties": {"Place_name": "Stradna"}}, {"type": "feature", "geometry": {"type": "Point", "coordinates": [19.503304, 47.162494]}, "properties": {"Place_name": "Oroszr\u00e9g"}}, {"type": "feature", "geometry": {"type": "Point", "coordinates": [20.2637492, 46.654789]}, "properties": {"Place_name": "Szentes"}}, {"type": "feature", "geometry": {"type": "Point", "coordinates": [21.8447933, 47.8749081]}, "properties": {"Place_name": "Nagyk\u00e1ll\u00f3"}}, {"type": "feature", "geometry": {"type": "Point", "coordinates": [17.3272097, 47.4596327]}, "properties": {"Place_name": "R\u00e1baszentandr\u00e1s"}}, {"type": "feature", "geometry": {"type": "Point", "coordinates": [17.528832, 47.23249190000001]}, "properties": {"Place_name": "G\u00e1nya"}}, {"type": "feature", "geometry": {"type": "Point", "coordinates": [18.4221358, 47.18602620000001]}, "properties": {"Place_name": "Sz\u00e9kesfeh\u00e9rv\u00e1r"}}, {"type": "feature", "geometry": {"type": "Point", "coordinates": [17.3649851, 46.2261652]}, "properties": {"Place_name": "Nagyat\u00e1d"}}, {"type": "feature", "geometry": {"type": "Point", "coordinates": [19.503304, 47.162494]}, "properties": {"Place_name": "B\u00e1rth\u00e1za"}}, {"type": "feature", "geometry": {"type": "Point", "coordinates": [19.1090853, 47.4433711]}, "properties": {"Place_name": "Pestszenterzs\u00e9bet"}}, {"type": "feature", "geometry": {"type": "Point", "coordinates": [19.503304, 47.162494]}, "properties": {"Place_name": "Nagyberezna"}}, {"type": "feature", "geometry": {"type": "Point", "coordinates": [18.5263534, 46.2981016]}, "properties": {"Place_name": "Bonyh\u00e1d"}}, {"type": "feature", "geometry": {"type": "Point", "coordinates": [19.503304, 47.162494]}, "properties": {"Place_name": "Vad\u00e1szfalva"}}, {"type": "feature", "geometry": {"type": "Point", "coordinates": [19.503304, 47.162494]}, "properties": {"Place_name": "Keterg\u00e9ny"}}, {"type": "feature", "geometry": {"type": "Point", "coordinates": [19.503304, 47.162494]}, "properties": {"Place_name": "Nagyv\u00e1rad"}}, {"type": "feature", "geometry": {"type": "Point", "coordinates": [19.503304, 47.162494]}, "properties": {"Place_name": "Felsoverecke"}}, {"type": "feature", "geometry": {"type": "Point", "coordinates": [19.503304, 47.162494]}, "properties": {"Place_name": "Felsoremete"}}, {"type": "feature", "geometry": {"type": "Point", "coordinates": [18.7221054, 47.3234883]}, "properties": {"Place_name": "Kaj\u00e1sz\u00f3szentp\u00e9ter"}}, {"type": "feature", "geometry": {"type": "Point", "coordinates": [23.8976506, 47.927707]}, "properties": {"Place_name": "M\u00e1ramarossziget"}}, {"type": "feature", "geometry": {"type": "Point", "coordinates": [19.0203587, 47.5522901]}, "properties": {"Place_name": "Toronya"}}, {"type": "feature", "geometry": {"type": "Point", "coordinates": [19.780429, 48.0700159]}, "properties": {"Place_name": "Zagyvap\u00e1lfalva"}}, {"type": "feature", "geometry": {"type": "Point", "coordinates": [19.503304, 47.162494]}, "properties": {"Place_name": "Chuszt"}}, {"type": "feature", "geometry": {"type": "Point", "coordinates": [23.4827736, 48.04966839999999]}, "properties": {"Place_name": "Bustyah\u00e1za"}}, {"type": "feature", "geometry": {"type": "Point", "coordinates": [19.503304, 47.162494]}, "properties": {"Place_name": "Als\u00f3szine"}}, {"type": "feature", "geometry": {"type": "Point", "coordinates": [21.2438164, 48.0275909]}, "properties": {"Place_name": "Tiszadada"}}, {"type": "feature", "geometry": {"type": "Point", "coordinates": [19.503304, 47.162494]}, "properties": {"Place_name": "Majdan"}}, {"type": "feature", "geometry": {"type": "Point", "coordinates": [19.503304, 47.162494]}, "properties": {"Place_name": "Marosj\u00e1nosi"}}, {"type": "feature", "geometry": {"type": "Point", "coordinates": [22.6370954, 48.1971868]}, "properties": {"Place_name": "Beregsz\u00e1sz"}}, {"type": "feature", "geometry": {"type": "Point", "coordinates": [19.503304, 47.162494]}, "properties": {"Place_name": "Visken"}}, {"type": "feature", "geometry": {"type": "Point", "coordinates": [17.046715, 47.08163]}, "properties": {"Place_name": "B\u00f6g\u00f6te"}}, {"type": "feature", "geometry": {"type": "Point", "coordinates": [19.503304, 47.162494]}, "properties": {"Place_name": "Arad"}}, {"type": "feature", "geometry": {"type": "Point", "coordinates": [18.1571098, 47.9881643]}, "properties": {"Place_name": "\u00c9rsek\u00fajv\u00e1r"}}, {"type": "feature", "geometry": {"type": "Point", "coordinates": [19.503304, 47.162494]}, "properties": {"Place_name": "Szajkofalva"}}, {"type": "feature", "geometry": {"type": "Point", "coordinates": [17.6206307, 47.9916348]}, "properties": {"Place_name": "Dunaszerdahely"}}, {"type": "feature", "geometry": {"type": "Point", "coordinates": [19.503304, 47.162494]}, "properties": {"Place_name": "Szatm\u00e1rn\u00e9meti (Szaplonca)"}}, {"type": "feature", "geometry": {"type": "Point", "coordinates": [23.9411193, 47.7794585]}, "properties": {"Place_name": "Aknasugatag"}}, {"type": "feature", "geometry": {"type": "Point", "coordinates": [22.7710858, 48.186344]}, "properties": {"Place_name": "Kov\u00e1sz\u00f3"}}, {"type": "feature", "geometry": {"type": "Point", "coordinates": [20.7784384, 48.1034775]}, "properties": {"Place_name": "Miskolc"}}, {"type": "feature", "geometry": {"type": "Point", "coordinates": [19.503304, 47.162494]}, "properties": {"Place_name": "Ipolys\u00e1g"}}, {"type": "feature", "geometry": {"type": "Point", "coordinates": [19.6106401, 47.9691969]}, "properties": {"Place_name": "Felsotold"}}, {"type": "feature", "geometry": {"type": "Point", "coordinates": [19.0913148, 47.56489149999999]}, "properties": {"Place_name": "\u00dajpest"}}, {"type": "feature", "geometry": {"type": "Point", "coordinates": [21.9314069, 48.0760479]}, "properties": {"Place_name": "Borzsova"}}, {"type": "feature", "geometry": {"type": "Point", "coordinates": [19.503304, 47.162494]}, "properties": {"Place_name": "Tiszaf\u00e9legyh\u00e1za"}}, {"type": "feature", "geometry": {"type": "Point", "coordinates": [19.1276419, 47.5393638]}, "properties": {"Place_name": "Pest\u00fajhely"}}, {"type": "feature", "geometry": {"type": "Point", "coordinates": [21.2048872, 48.1590429]}, "properties": {"Place_name": "Szerencs"}}, {"type": "feature", "geometry": {"type": "Point", "coordinates": [19.503304, 47.162494]}, "properties": {"Place_name": "Nasz\u00f3d"}}, {"type": "feature", "geometry": {"type": "Point", "coordinates": [23.647865, 47.1439283]}, "properties": {"Place_name": "Alpar\u00e9t"}}, {"type": "feature", "geometry": {"type": "Point", "coordinates": [19.503304, 47.162494]}, "properties": {"Place_name": "Voloc"}}, {"type": "feature", "geometry": {"type": "Point", "coordinates": [22.5316392, 48.1055366]}, "properties": {"Place_name": "Tarpa"}}, {"type": "feature", "geometry": {"type": "Point", "coordinates": [22.1014229, 48.2690868]}, "properties": {"Place_name": "F\u00e9nyeslitke"}}, {"type": "feature", "geometry": {"type": "Point", "coordinates": [19.503304, 47.162494]}, "properties": {"Place_name": "Kassa"}}, {"type": "feature", "geometry": {"type": "Point", "coordinates": [19.503304, 47.162494]}, "properties": {"Place_name": "Repede"}}, {"type": "feature", "geometry": {"type": "Point", "coordinates": [19.503304, 47.162494]}, "properties": {"Place_name": "Szenteske"}}, {"type": "feature", "geometry": {"type": "Point", "coordinates": [19.093871, 47.411309]}, "properties": {"Place_name": "K\u00f6k\u00e9nyes"}}, {"type": "feature", "geometry": {"type": "Point", "coordinates": [19.503304, 47.162494]}, "properties": {"Place_name": "Beregard\u00f3"}}, {"type": "feature", "geometry": {"type": "Point", "coordinates": [22.1772664, 48.6972824]}, "properties": {"Place_name": "Porostov"}}, {"type": "feature", "geometry": {"type": "Point", "coordinates": [18.9167877, 46.806202]}, "properties": {"Place_name": "Dunaf\u00f6ldv\u00e1r"}}, {"type": "feature", "geometry": {"type": "Point", "coordinates": [21.7087174, 48.0497052]}, "properties": {"Place_name": "K\u00f3taj"}}, {"type": "feature", "geometry": {"type": "Point", "coordinates": [19.503304, 47.162494]}, "properties": {"Place_name": "Kov\u00e1csr\u00e9t"}}, {"type": "feature", "geometry": {"type": "Point", "coordinates": [20.5698525, 47.8074617]}, "properties": {"Place_name": "Mezok\u00f6vesd"}}, {"type": "feature", "geometry": {"type": "Point", "coordinates": [22.462143, 47.6814513]}, "properties": {"Place_name": "Nagyk\u00e1roly"}}, {"type": "feature", "geometry": {"type": "Point", "coordinates": [19.503304, 47.162494]}, "properties": {"Place_name": "Petrova"}}, {"type": "feature", "geometry": {"type": "Point", "coordinates": [24.4396734, 47.7150521]}, "properties": {"Place_name": "Felsovis\u00f3"}}, {"type": "feature", "geometry": {"type": "Point", "coordinates": [19.503304, 47.162494]}, "properties": {"Place_name": "Szatm\u00e1rn\u00e9meti"}}, {"type": "feature", "geometry": {"type": "Point", "coordinates": [19.503304, 47.162494]}, "properties": {"Place_name": "Akna-Szlatina"}}, {"type": "feature", "geometry": {"type": "Point", "coordinates": [19.503304, 47.162494]}, "properties": {"Place_name": "V\u00e1rpal\u00e1nka"}}, {"type": "feature", "geometry": {"type": "Point", "coordinates": [22.9020738, 48.3504123]}, "properties": {"Place_name": "Dr\u00e1gab\u00e1tfalva"}}, {"type": "feature", "geometry": {"type": "Point", "coordinates": [19.503304, 47.162494]}, "properties": {"Place_name": "Nagykapos"}}, {"type": "feature", "geometry": {"type": "Point", "coordinates": [19.503304, 47.162494]}, "properties": {"Place_name": "Cs\u00f6rg?"}}, {"type": "feature", "geometry": {"type": "Point", "coordinates": [19.503304, 47.162494]}, "properties": {"Place_name": "N\u00e9metporuba"}}, {"type": "feature", "geometry": {"type": "Point", "coordinates": [19.0217516, 47.4795264]}, "properties": {"Place_name": "Oroszv\u00e9g"}}, {"type": "feature", "geometry": {"type": "Point", "coordinates": [19.503304, 47.162494]}, "properties": {"Place_name": "Raho"}}, {"type": "feature", "geometry": {"type": "Point", "coordinates": [19.503304, 47.162494]}, "properties": {"Place_name": "Borsa"}}, {"type": "feature", "geometry": {"type": "Point", "coordinates": [19.503304, 47.162494]}, "properties": {"Place_name": "Nagysz?ll?s"}}, {"type": "feature", "geometry": {"type": "Point", "coordinates": [21.8122197, 47.2851817]}, "properties": {"Place_name": "Pocsaj"}}, {"type": "feature", "geometry": {"type": "Point", "coordinates": [19.1155371, 47.4359575]}, "properties": {"Place_name": "Als\u00f3apsa"}}, {"type": "feature", "geometry": {"type": "Point", "coordinates": [22.9948916, 48.54285669999999]}, "properties": {"Place_name": "Szolyva"}}, {"type": "feature", "geometry": {"type": "Point", "coordinates": [19.503304, 47.162494]}, "properties": {"Place_name": "Bilke"}}, {"type": "feature", "geometry": {"type": "Point", "coordinates": [22.5958253, 48.4706824]}, "properties": {"Place_name": "Beregr\u00e1kos"}}, {"type": "feature", "geometry": {"type": "Point", "coordinates": [19.503304, 47.162494]}, "properties": {"Place_name": "###"}}, {"type": "feature", "geometry": {"type": "Point", "coordinates": [19.503304, 47.162494]}, "properties": {"Place_name": "Irholz"}}, {"type": "feature", "geometry": {"type": "Point", "coordinates": [18.8546832, 46.6060722]}, "properties": {"Place_name": "Paks"}}, {"type": "feature", "geometry": {"type": "Point", "coordinates": [17.4371124, 46.8834475]}, "properties": {"Place_name": "Tapolca"}}, {"type": "feature", "geometry": {"type": "Point", "coordinates": [19.503304, 47.162494]}, "properties": {"Place_name": "Rom\u00e1n##"}}, {"type": "feature", "geometry": {"type": "Point", "coordinates": [18.232266, 46.0727345]}, "properties": {"Place_name": "P\u00e9cs"}}, {"type": "feature", "geometry": {"type": "Point", "coordinates": [22.8417209, 48.1100924]}, "properties": {"Place_name": "Tisza\u00fajlak"}}, {"type": "feature", "geometry": {"type": "Point", "coordinates": [17.8839478, 47.3639954]}, "properties": {"Place_name": "Bakonyszentkir\u00e1ly"}}, {"type": "feature", "geometry": {"type": "Point", "coordinates": [19.503304, 47.162494]}, "properties": {"Place_name": "Herincse"}}, {"type": "feature", "geometry": {"type": "Point", "coordinates": [19.503304, 47.162494]}, "properties": {"Place_name": "Laposna"}}, {"type": "feature", "geometry": {"type": "Point", "coordinates": [22.4571681, 48.2539304]}, "properties": {"Place_name": "Mez\u00f6kaszony"}}, {"type": "feature", "geometry": {"type": "Point", "coordinates": [19.503304, 47.162494]}, "properties": {"Place_name": "K?r\u00f6smez?"}}, {"type": "feature", "geometry": {"type": "Point", "coordinates": [19.503304, 47.162494]}, "properties": {"Place_name": "Ign\u00e9c"}}, {"type": "feature", "geometry": {"type": "Point", "coordinates": [20.3300315, 46.4181262]}, "properties": {"Place_name": "H\u00f3dmezov\u00e1s\u00e1rhely"}}, {"type": "feature", "geometry": {"type": "Point", "coordinates": [23.0974009, 48.77244719999999]}, "properties": {"Place_name": "Als\u00f3verecke"}}, {"type": "feature", "geometry": {"type": "Point", "coordinates": [19.503304, 47.162494]}, "properties": {"Place_name": "V\u00e1gszered"}}, {"type": "feature", "geometry": {"type": "Point", "coordinates": [20.1414253, 46.2530102]}, "properties": {"Place_name": "Szeged"}}, {"type": "feature", "geometry": {"type": "Point", "coordinates": [19.0107327, 47.0903328]}, "properties": {"Place_name": "D\u00f6ms\u00f6d"}}, {"type": "feature", "geometry": {"type": "Point", "coordinates": [24.3450737, 48.2595628]}, "properties": {"Place_name": "K\u00f6r\u00f6smezo"}}, {"type": "feature", "geometry": {"type": "Point", "coordinates": [19.503304, 47.162494]}, "properties": {"Place_name": "Botfalva"}}, {"type": "feature", "geometry": {"type": "Point", "coordinates": [22.130818, 47.8390013]}, "properties": {"Place_name": "Ny\u00edrb\u00e1tor"}}, {"type": "feature", "geometry": {"type": "Point", "coordinates": [18.232266, 46.0727345]}, "properties": {"Place_name": "B\u00e9cs"}}, {"type": "feature", "geometry": {"type": "Point", "coordinates": [19.0913148, 47.56489149999999]}, "properties": {"Place_name": "Ujpest"}}, {"type": "feature", "geometry": {"type": "Point", "coordinates": [20.9595443, 47.0313217]}, "properties": {"Place_name": "D\u00e9vav\u00e1nya"}}, {"type": "feature", "geometry": {"type": "Point", "coordinates": [19.676666, 47.6656965]}, "properties": {"Place_name": "Hatvan"}}, {"type": "feature", "geometry": {"type": "Point", "coordinates": [19.503304, 47.162494]}, "properties": {"Place_name": "Halmi"}}, {"type": "feature", "geometry": {"type": "Point", "coordinates": [19.503304, 47.162494]}, "properties": {"Place_name": "Ugonya"}}, {"type": "feature", "geometry": {"type": "Point", "coordinates": [19.503304, 47.162494]}, "properties": {"Place_name": "B\u00fcd-Szt.Mih\u00e1ly"}}, {"type": "feature", "geometry": {"type": "Point", "coordinates": [17.7331443, 47.1147506]}, "properties": {"Place_name": "Szentg\u00e1l"}}, {"type": "feature", "geometry": {"type": "Point", "coordinates": [19.503304, 47.162494]}, "properties": {"Place_name": "Csornok"}}, {"type": "feature", "geometry": {"type": "Point", "coordinates": [20.7618268, 48.5452009]}, "properties": {"Place_name": "Komj\u00e1ti"}}, {"type": "feature", "geometry": {"type": "Point", "coordinates": [18.1267006, 47.7390852]}, "properties": {"Place_name": "Kom\u00e1rom"}}, {"type": "feature", "geometry": {"type": "Point", "coordinates": [17.9093019, 47.1028087]}, "properties": {"Place_name": "Veszpr\u00e9m"}}, {"type": "feature", "geometry": {"type": "Point", "coordinates": [19.503304, 47.162494]}, "properties": {"Place_name": "E\u00f6tv\u00f6sfalva"}}, {"type": "feature", "geometry": {"type": "Point", "coordinates": [19.503304, 47.162494]}, "properties": {"Place_name": "Kisapsa"}}, {"type": "feature", "geometry": {"type": "Point", "coordinates": [19.503304, 47.162494]}, "properties": {"Place_name": "Pusztakvass#"}}, {"type": "feature", "geometry": {"type": "Point", "coordinates": [19.503304, 47.162494]}, "properties": {"Place_name": "Dr\u00e1gab\u00e1rdfalva"}}, {"type": "feature", "geometry": {"type": "Point", "coordinates": [19.503304, 47.162494]}, "properties": {"Place_name": "F\u00fclek"}}, {"type": "feature", "geometry": {"type": "Point", "coordinates": [19.2937136, 48.0711866]}, "properties": {"Place_name": "Balassagyarmat"}}, {"type": "feature", "geometry": {"type": "Point", "coordinates": [19.503304, 47.162494]}, "properties": {"Place_name": "Mircse"}}, {"type": "feature", "geometry": {"type": "Point", "coordinates": [19.503304, 47.162494]}, "properties": {"Place_name": "Polena"}}, {"type": "feature", "geometry": {"type": "Point", "coordinates": [18.965422, 47.989441]}, "properties": {"Place_name": "Kir\u00e1lyh\u00e1za"}}, {"type": "feature", "geometry": {"type": "Point", "coordinates": [19.503304, 47.162494]}, "properties": {"Place_name": "Csarnat\u00f6"}}, {"type": "feature", "geometry": {"type": "Point", "coordinates": [19.503304, 47.162494]}, "properties": {"Place_name": "Rozsny\u00f3"}}, {"type": "feature", "geometry": {"type": "Point", "coordinates": [19.503304, 47.162494]}, "properties": {"Place_name": "Pestszentl?rincz"}}, {"type": "feature", "geometry": {"type": "Point", "coordinates": [17.08134612966608, 46.93855799493657]}, "properties": {"Place_name": "N\u00e1daspatak"}}, {"type": "feature", "geometry": {"type": "Point", "coordinates": [21.1185953, 47.3216529]}, "properties": {"Place_name": "P\u00fcsp\u00f6klad\u00e1ny"}}, {"type": "feature", "geometry": {"type": "Point", "coordinates": [18.7078968, 47.6272993]}, "properties": {"Place_name": "Kis Kirva"}}, {"type": "feature", "geometry": {"type": "Point", "coordinates": [21.0877309, 46.6735939]}, "properties": {"Place_name": "B\u00e9k\u00e9scsaba"}}, {"type": "feature", "geometry": {"type": "Point", "coordinates": [19.503304, 47.162494]}, "properties": {"Place_name": "Uglya"}}, {"type": "feature", "geometry": {"type": "Point", "coordinates": [16.9355448, 47.29410499999999]}, "properties": {"Place_name": "R\u00e1babogyoszl\u00f3"}}, {"type": "feature", "geometry": {"type": "Point", "coordinates": [19.503304, 47.162494]}, "properties": {"Place_name": "Nagybocsk\u00f3"}}, {"type": "feature", "geometry": {"type": "Point", "coordinates": [21.90337, 47.3788079]}, "properties": {"Place_name": "Nagyl\u00e9ta"}}, {"type": "feature", "geometry": {"type": "Point", "coordinates": [22.9825789, 48.2376578]}, "properties": {"Place_name": "Magyarkomj\u00e1t"}}, {"type": "feature", "geometry": {"type": "Point", "coordinates": [22.6230638, 46.2674979]}, "properties": {"Place_name": "Kishalm\u00e1gy"}}, {"type": "feature", "geometry": {"type": "Point", "coordinates": [19.503304, 47.162494]}, "properties": {"Place_name": "B\u00e1rtfa"}}, {"type": "feature", "geometry": {"type": "Point", "coordinates": [19.503304, 47.162494]}, "properties": {"Place_name": "Ulicskriva"}}, {"type": "feature", "geometry": {"type": "Point", "coordinates": [19.503304, 47.162494]}, "properties": {"Place_name": "Hosztovize"}}, {"type": "feature", "geometry": {"type": "Point", "coordinates": [19.503304, 47.162494]}, "properties": {"Place_name": "Nagyb\u00e1nya"}}, {"type": "feature", "geometry": {"type": "Point", "coordinates": [17.4613774, 45.9584735]}, "properties": {"Place_name": "Barcs"}}, {"type": "feature", "geometry": {"type": "Point", "coordinates": [22.3161391, 47.9515675]}, "properties": {"Place_name": "M\u00e1t\u00e9szalka"}}, {"type": "feature", "geometry": {"type": "Point", "coordinates": [19.503304, 47.162494]}, "properties": {"Place_name": "Majd\u00e1nka"}}, {"type": "feature", "geometry": {"type": "Point", "coordinates": [19.503304, 47.162494]}, "properties": {"Place_name": "Sz\u00e1szr\u00e9g"}}, {"type": "feature", "geometry": {"type": "Point", "coordinates": [19.503304, 47.162494]}, "properties": {"Place_name": "Als\u00f3domonya"}}, {"type": "feature", "geometry": {"type": "Point", "coordinates": [19.503304, 47.162494]}, "properties": {"Place_name": "K\u00f6z\u00e9papsa"}}, {"type": "feature", "geometry": {"type": "Point", "coordinates": [22.9443562, 48.2791875]}, "properties": {"Place_name": "Beregk\u00f6vesd"}}, {"type": "feature", "geometry": {"type": "Point", "coordinates": [19.503304, 47.162494]}, "properties": {"Place_name": "Sala"}}, {"type": "feature", "geometry": {"type": "Point", "coordinates": [19.503304, 47.162494]}, "properties": {"Place_name": "Turz"}}, {"type": "feature", "geometry": {"type": "Point", "coordinates": [19.503304, 47.162494]}, "properties": {"Place_name": "Kusmina"}}, {"type": "feature", "geometry": {"type": "Point", "coordinates": [20.7363644, 46.4107596]}, "properties": {"Place_name": "T\u00f3tkoml\u00f3s"}}, {"type": "feature", "geometry": {"type": "Point", "coordinates": [17.4376764, 47.1035622]}, "properties": {"Place_name": "Devecser"}}, {"type": "feature", "geometry": {"type": "Point", "coordinates": [19.0433393, 47.4653048]}, "properties": {"Place_name": "Nagysur\u00e1ny"}}, {"type": "feature", "geometry": {"type": "Point", "coordinates": [19.503304, 47.162494]}, "properties": {"Place_name": "Berezova"}}, {"type": "feature", "geometry": {"type": "Point", "coordinates": [21.9780619, 48.4249637]}, "properties": {"Place_name": "Kir\u00e1lyhelmec"}}, {"type": "feature", "geometry": {"type": "Point", "coordinates": [19.503304, 47.162494]}, "properties": {"Place_name": "Dolha"}}, {"type": "feature", "geometry": {"type": "Point", "coordinates": [19.503304, 47.162494]}, "properties": {"Place_name": "Poszony"}}, {"type": "feature", "geometry": {"type": "Point", "coordinates": [19.503304, 47.162494]}, "properties": {"Place_name": "Berek\u00f6vesd"}}, {"type": "feature", "geometry": {"type": "Point", "coordinates": [19.066142, 47.4243579]}, "properties": {"Place_name": "Csepe"}}, {"type": "feature", "geometry": {"type": "Point", "coordinates": [22.2699385, 48.0243439]}, "properties": {"Place_name": "Ny\u00edrparasznya"}}, {"type": "feature", "geometry": {"type": "Point", "coordinates": [19.503304, 47.162494]}, "properties": {"Place_name": "Ilonca"}}, {"type": "feature", "geometry": {"type": "Point", "coordinates": [17.0239011, 47.4320792]}, "properties": {"Place_name": "Cs\u00e1nig"}}, {"type": "feature", "geometry": {"type": "Point", "coordinates": [22.1842213, 48.8489529]}, "properties": {"Place_name": "Remetevasgy\u00e1r"}}, {"type": "feature", "geometry": {"type": "Point", "coordinates": [19.503304, 47.162494]}, "properties": {"Place_name": "Fels?ripnyice"}}, {"type": "feature", "geometry": {"type": "Point", "coordinates": [19.503304, 47.162494]}, "properties": {"Place_name": "Szentmikl\u00f3s"}}, {"type": "feature", "geometry": {"type": "Point", "coordinates": [20.3772284, 47.9025348]}, "properties": {"Place_name": "Eger"}}, {"type": "feature", "geometry": {"type": "Point", "coordinates": [21.7244053, 47.9495324]}, "properties": {"Place_name": "Ny\u00edregyh\u00e1za"}}, {"type": "feature", "geometry": {"type": "Point", "coordinates": [19.503304, 47.162494]}, "properties": {"Place_name": "\u00c9rsekk\u00e9ty"}}, {"type": "feature", "geometry": {"type": "Point", "coordinates": [19.503304, 47.162494]}, "properties": {"Place_name": "Szills\u00e1rk\u00e1ny"}}, {"type": "feature", "geometry": {"type": "Point", "coordinates": [19.503304, 47.162494]}, "properties": {"Place_name": "Badal\u00f3"}}, {"type": "feature", "geometry": {"type": "Point", "coordinates": [18.0325771, 46.7322262]}, "properties": {"Place_name": "Tab"}}, {"type": "feature", "geometry": {"type": "Point", "coordinates": [20.5266647, 47.2492059]}, "properties": {"Place_name": "Fegyvernek"}}, {"type": "feature", "geometry": {"type": "Point", "coordinates": [19.503304, 47.162494]}, "properties": {"Place_name": "Nagysz\u00f6ll\u00f6s"}}, {"type": "feature", "geometry": {"type": "Point", "coordinates": [20.1981562, 46.8021192]}, "properties": {"Place_name": "Szelev\u00e9ny"}}, {"type": "feature", "geometry": {"type": "Point", "coordinates": [21.3436582, 48.1398687]}, "properties": {"Place_name": "Mez?k\u00f6vesd"}}, {"type": "feature", "geometry": {"type": "Point", "coordinates": [21.9085991, 47.6899404]}, "properties": {"Place_name": "Ny\u00edradony"}}, {"type": "feature", "geometry": {"type": "Point", "coordinates": [19.503304, 47.162494]}, "properties": {"Place_name": "Kalini"}}, {"type": "feature", "geometry": {"type": "Point", "coordinates": [19.503304, 47.162494]}, "properties": {"Place_name": "Szeklence"}}, {"type": "feature", "geometry": {"type": "Point", "coordinates": [17.7608985, 46.6205718]}, "properties": {"Place_name": "Gam\u00e1s"}}, {"type": "feature", "geometry": {"type": "Point", "coordinates": [18.1700065, 48.5589454]}, "properties": {"Place_name": "Nagytapolcs\u00e1ny"}}, {"type": "feature", "geometry": {"type": "Point", "coordinates": [19.503304, 47.162494]}, "properties": {"Place_name": "Irhols"}}, {"type": "feature", "geometry": {"type": "Point", "coordinates": [19.503304, 47.162494]}, "properties": {"Place_name": "Fels?szopor"}}, {"type": "feature", "geometry": {"type": "Point", "coordinates": [21.3555868, 47.2549739]}, "properties": {"Place_name": "Csap"}}, {"type": "feature", "geometry": {"type": "Point", "coordinates": [19.2035068, 45.8523803]}, "properties": {"Place_name": "Nemesmilitics"}}, {"type": "feature", "geometry": {"type": "Point", "coordinates": [19.503304, 47.162494]}, "properties": {"Place_name": "Takcs\u00e1ny"}}, {"type": "feature", "geometry": {"type": "Point", "coordinates": [19.1084883, 47.5355148]}, "properties": {"Place_name": "Gyetva"}}, {"type": "feature", "geometry": {"type": "Point", "coordinates": [21.3417333, 47.6145296]}, "properties": {"Place_name": "Balmaz\u00fajv\u00e1ros"}}, {"type": "feature", "geometry": {"type": "Point", "coordinates": [19.503304, 47.162494]}, "properties": {"Place_name": "Lazony"}}, {"type": "feature", "geometry": {"type": "Point", "coordinates": [20.9051607, 47.8207081]}, "properties": {"Place_name": "Mezocs\u00e1t"}}, {"type": "feature", "geometry": {"type": "Point", "coordinates": [23.2849196, 47.74750780000001]}, "properties": {"Place_name": "Szin\u00e9rv\u00e1ralj"}}, {"type": "feature", "geometry": {"type": "Point", "coordinates": [19.8515197, 46.7112802]}, "properties": {"Place_name": "Kiskunf\u00e9legyh\u00e1za"}}, {"type": "feature", "geometry": {"type": "Point", "coordinates": [22.11008971704429, 46.78301994976988]}, "properties": {"Place_name": "Kralova u/Tiszo"}}, {"type": "feature", "geometry": {"type": "Point", "coordinates": [19.503304, 47.162494]}, "properties": {"Place_name": "Felsoveresmarton"}}, {"type": "feature", "geometry": {"type": "Point", "coordinates": [19.503304, 47.162494]}, "properties": {"Place_name": "H\u00e9vmagyarad"}}, {"type": "feature", "geometry": {"type": "Point", "coordinates": [19.0970722, 47.3536817]}, "properties": {"Place_name": "Dunaharaszti"}}, {"type": "feature", "geometry": {"type": "Point", "coordinates": [20.194483, 47.9319682]}, "properties": {"Place_name": "Sirok"}}, {"type": "feature", "geometry": {"type": "Point", "coordinates": [19.503304, 47.162494]}, "properties": {"Place_name": "Kistoronya"}}, {"type": "feature", "geometry": {"type": "Point", "coordinates": [19.9294927, 47.7772651]}, "properties": {"Place_name": "Gy\u00f6ngy\u00f6s"}}, {"type": "feature", "geometry": {"type": "Point", "coordinates": [20.4809265, 46.2219071]}, "properties": {"Place_name": "Mak\u00f3"}}, {"type": "feature", "geometry": {"type": "Point", "coordinates": [19.066142, 47.4243579]}, "properties": {"Place_name": "Csepel"}}, {"type": "feature", "geometry": {"type": "Point", "coordinates": [19.503304, 47.162494]}, "properties": {"Place_name": "Tiszas\u00e1rv\u00e1r"}}, {"type": "feature", "geometry": {"type": "Point", "coordinates": [18.2414807, 46.9326943]}, "properties": {"Place_name": "Enying"}}, {"type": "feature", "geometry": {"type": "Point", "coordinates": [22.3883812, 47.8650809]}, "properties": {"Place_name": "Nagyecsed"}}, {"type": "feature", "geometry": {"type": "Point", "coordinates": [22.1497666, 47.9341371]}, "properties": {"Place_name": "K\u00e1ntorj\u00e1nosi"}}, {"type": "feature", "geometry": {"type": "Point", "coordinates": [19.503304, 47.162494]}, "properties": {"Place_name": "Ilonc\u00e1n"}}, {"type": "feature", "geometry": {"type": "Point", "coordinates": [24.700762, 46.7710931]}, "properties": {"Place_name": "Sz\u00e1szr\u00e9gen"}}, {"type": "feature", "geometry": {"type": "Point", "coordinates": [19.503304, 47.162494]}, "properties": {"Place_name": "Marosv\u00e1s\u00e1rhely"}}, {"type": "feature", "geometry": {"type": "Point", "coordinates": [19.7999813, 48.0935237]}, "properties": {"Place_name": "Salg\u00f3tarj\u00e1n"}}, {"type": "feature", "geometry": {"type": "Point", "coordinates": [20.047408, 45.614386]}, "properties": {"Place_name": "\u00d3becse"}}, {"type": "feature", "geometry": {"type": "Point", "coordinates": [19.503304, 47.162494]}, "properties": {"Place_name": "Nagyfalu (Veli#na)"}}, {"type": "feature", "geometry": {"type": "Point", "coordinates": [22.4723243, 48.7359203]}, "properties": {"Place_name": "Perecseny"}}, {"type": "feature", "geometry": {"type": "Point", "coordinates": [19.503304, 47.162494]}, "properties": {"Place_name": "Csapovce"}}, {"type": "feature", "geometry": {"type": "Point", "coordinates": [19.503304, 47.162494]}, "properties": {"Place_name": "Beregpapfalva"}}, {"type": "feature", "geometry": {"type": "Point", "coordinates": [18.3896419, 47.56945289999999]}, "properties": {"Place_name": "B\u00e1nhida"}}, {"type": "feature", "geometry": {"type": "Point", "coordinates": [19.503304, 47.162494]}, "properties": {"Place_name": "Magyarber\u00e9t"}}, {"type": "feature", "geometry": {"type": "Point", "coordinates": [18.1452879, 46.3828653]}, "properties": {"Place_name": "Domb\u00f3v\u00e1r"}}, {"type": "feature", "geometry": {"type": "Point", "coordinates": [17.6742282, 46.7098826]}, "properties": {"Place_name": "Sz\u00f6ll\u00f6sgy\u00f6r\u00f6k"}}, {"type": "feature", "geometry": {"type": "Point", "coordinates": [21.8889241, 48.25589369999999]}, "properties": {"Place_name": "Cig\u00e1nd"}}, {"type": "feature", "geometry": {"type": "Point", "coordinates": [22.7117106, 48.4493055]}, "properties": {"Place_name": "Munk\u00e1cs-V\u00e1ralja"}}, {"type": "feature", "geometry": {"type": "Point", "coordinates": [19.503304, 47.162494]}, "properties": {"Place_name": "P\u00e1trona"}}, {"type": "feature", "geometry": {"type": "Point", "coordinates": [19.503304, 47.162494]}, "properties": {"Place_name": "Tiszafeh\u00e9regyh\u00e1za"}}, {"type": "feature", "geometry": {"type": "Point", "coordinates": [19.503304, 47.162494]}, "properties": {"Place_name": "K\u00f6vesdliget"}}, {"type": "feature", "geometry": {"type": "Point", "coordinates": [19.503304, 47.162494]}, "properties": {"Place_name": "Ternova"}}, {"type": "feature", "geometry": {"type": "Point", "coordinates": [19.503304, 47.162494]}, "properties": {"Place_name": "Tornalja"}}, {"type": "feature", "geometry": {"type": "Point", "coordinates": [19.503304, 47.162494]}, "properties": {"Place_name": "Iza"}}, {"type": "feature", "geometry": {"type": "Point", "coordinates": [19.133333, 47.45]}, "properties": {"Place_name": "Kispest"}}, {"type": "feature", "geometry": {"type": "Point", "coordinates": [18.9840376, 46.5281229]}, "properties": {"Place_name": "Kalocsa"}}, {"type": "feature", "geometry": {"type": "Point", "coordinates": [19.1746722, 47.5108652]}, "properties": {"Place_name": "Sashalom"}}, {"type": "feature", "geometry": {"type": "Point", "coordinates": [19.503304, 47.162494]}, "properties": {"Place_name": "Keselymez?"}}, {"type": "feature", "geometry": {"type": "Point", "coordinates": [19.503304, 47.162494]}, "properties": {"Place_name": "Felsoverecke \u00e9s Ungv\u00e1r"}}, {"type": "feature", "geometry": {"type": "Point", "coordinates": [17.6500124, 46.5831195]}, "properties": {"Place_name": "Somogyv\u00e1r"}}, {"type": "feature", "geometry": {"type": "Point", "coordinates": [19.503304, 47.162494]}, "properties": {"Place_name": "Visk"}}, {"type": "feature", "geometry": {"type": "Point", "coordinates": [19.0585821, 47.5843759]}, "properties": {"Place_name": "Csillaghegy"}}, {"type": "feature", "geometry": {"type": "Point", "coordinates": [19.119317, 47.4332879]}, "properties": {"Place_name": "Pesterzs\u00e9bet"}}, {"type": "feature", "geometry": {"type": "Point", "coordinates": [19.503304, 47.162494]}, "properties": {"Place_name": "Reteg"}}, {"type": "feature", "geometry": {"type": "Point", "coordinates": [22.0823558, 48.2181151]}, "properties": {"Place_name": "Kisv\u00e1rda"}}, {"type": "feature", "geometry": {"type": "Point", "coordinates": [19.1660152, 47.5250909]}, "properties": {"Place_name": "R\u00e1kosszentmih\u00e1ly"}}, {"type": "feature", "geometry": {"type": "Point", "coordinates": [19.503304, 47.162494]}, "properties": {"Place_name": "##"}}, {"type": "feature", "geometry": {"type": "Point", "coordinates": [19.503304, 47.162494]}, "properties": {"Place_name": "Turjaporosk?"}}, {"type": "feature", "geometry": {"type": "Point", "coordinates": [23.041894, 48.3117809]}, "properties": {"Place_name": "Irsava"}}, {"type": "feature", "geometry": {"type": "Point", "coordinates": [22.5708367, 48.5982586]}, "properties": {"Place_name": "Nagygajdos"}}, {"type": "feature", "geometry": {"type": "Point", "coordinates": [17.7266636, 48.18954129999999]}, "properties": {"Place_name": "Gal\u00e1nta"}}, {"type": "feature", "geometry": {"type": "Point", "coordinates": [19.503304, 47.162494]}, "properties": {"Place_name": "Kisapasa"}}, {"type": "feature", "geometry": {"type": "Point", "coordinates": [18.9877826, 47.474153]}, "properties": {"Place_name": "Nagyida"}}, {"type": "feature", "geometry": {"type": "Point", "coordinates": [19.503304, 47.162494]}, "properties": {"Place_name": "Pestszentl?rinc"}}, {"type": "feature", "geometry": {"type": "Point", "coordinates": [16.9294867, 47.2524196]}, "properties": {"Place_name": "S\u00e1rv\u00e1r"}}, {"type": "feature", "geometry": {"type": "Point", "coordinates": [19.503304, 47.162494]}, "properties": {"Place_name": "Kolbaszova"}}, {"type": "feature", "geometry": {"type": "Point", "coordinates": [19.503304, 47.162494]}, "properties": {"Place_name": "Fels?bisztra"}}, {"type": "feature", "geometry": {"type": "Point", "coordinates": [19.1351781, 47.7841803]}, "properties": {"Place_name": "V\u00e1c"}}, {"type": "feature", "geometry": {"type": "Point", "coordinates": [19.2614256, 47.47544509999999]}, "properties": {"Place_name": "R\u00e1koskereszt\u00far"}}, {"type": "feature", "geometry": {"type": "Point", "coordinates": [14.3122246, 46.6364598]}, "properties": {"Place_name": "Klagenfurt"}}, {"type": "feature", "geometry": {"type": "Point", "coordinates": [19.503304, 47.162494]}, "properties": {"Place_name": "\u00dajvid\u00e9k"}}, {"type": "feature", "geometry": {"type": "Point", "coordinates": [24.2128943, 48.0545898]}, "properties": {"Place_name": "Rah\u00f3"}}, {"type": "feature", "geometry": {"type": "Point", "coordinates": [21.6254485, 47.5288879]}, "properties": {"Place_name": "Debrecen"}}, {"type": "feature", "geometry": {"type": "Point", "coordinates": [20.3500536, 48.0578657]}, "properties": {"Place_name": "B\u00e9lap\u00e1tfalva"}}, {"type": "feature", "geometry": {"type": "Point", "coordinates": [23.0302124, 48.14634909999999]}, "properties": {"Place_name": "Nagysz\u00f6llos"}}, {"type": "feature", "geometry": {"type": "Point", "coordinates": [18.41852, 46.1591341]}, "properties": {"Place_name": "P\u00e9csv\u00e1rad"}}, {"type": "feature", "geometry": {"type": "Point", "coordinates": [18.8912626, 47.2482238]}, "properties": {"Place_name": "Ercsi"}}, {"type": "feature", "geometry": {"type": "Point", "coordinates": [19.503304, 47.162494]}, "properties": {"Place_name": "P\u00e1rk\u00e1ny"}}, {"type": "feature", "geometry": {"type": "Point", "coordinates": [18.4602445, 47.39414679999999]}, "properties": {"Place_name": "Cs\u00e1kv\u00e1r"}}, {"type": "feature", "geometry": {"type": "Point", "coordinates": [19.503304, 47.162494]}, "properties": {"Place_name": "Vica"}}, {"type": "feature", "geometry": {"type": "Point", "coordinates": [19.503304, 47.162494]}, "properties": {"Place_name": "Als\u00f3neresznice"}}]}