{"type": "FeatureCollection", "features": [{"type": "feature", "geometry": {"type": "Point", "coordinates": [19.040235, 47.497912]}, "properties": {"Place_name": "Budapest"}}, {"type": "feature", "geometry": {"type": "Point", "coordinates": [19.503304, 47.162494]}, "properties": {"Place_name": "Fels?veresmart"}}, {"type": "feature", "geometry": {"type": "Point", "coordinates": [19.503304, 47.162494]}, "properties": {"Place_name": "Munk\u00e1cs"}}, {"type": "feature", "geometry": {"type": "Point", "coordinates": [19.503304, 47.162494]}, "properties": {"Place_name": "Zsolna"}}, {"type": "feature", "geometry": {"type": "Point", "coordinates": [19.503304, 47.162494]}, "properties": {"Place_name": "##sz\u00e1rnya"}}, {"type": "feature", "geometry": {"type": "Point", "coordinates": [19.7059592, 47.92414040000001]}, "properties": {"Place_name": "P\u00e1szt\u00f3"}}, {"type": "feature", "geometry": {"type": "Point", "coordinates": [18.0677287, 46.9100184]}, "properties": {"Place_name": "Mih\u00e1lyka"}}, {"type": "feature", "geometry": {"type": "Point", "coordinates": [19.503304, 47.162494]}, "properties": {"Place_name": "Aknaszlatina"}}, {"type": "feature", "geometry": {"type": "Point", "coordinates": [18.0012442, 47.592676]}, "properties": {"Place_name": "T\u00e1rk\u00e1ny"}}, {"type": "feature", "geometry": {"type": "Point", "coordinates": [19.503304, 47.162494]}, "properties": {"Place_name": "H\u00e1rsfalva"}}, {"type": "feature", "geometry": {"type": "Point", "coordinates": [19.503304, 47.162494]}, "properties": {"Place_name": "Huszt"}}, {"type": "feature", "geometry": {"type": "Point", "coordinates": [19.503304, 47.162494]}, "properties": {"Place_name": "Ilosva"}}, {"type": "feature", "geometry": {"type": "Point", "coordinates": [21.2784255, 46.6473027]}, "properties": {"Place_name": "Gyula"}}, {"type": "feature", "geometry": {"type": "Point", "coordinates": [19.503304, 47.162494]}, "properties": {"Place_name": "Ruszkavoda"}}, {"type": "feature", "geometry": {"type": "Point", "coordinates": [19.503304, 47.162494]}, "properties": {"Place_name": "Wien"}}, {"type": "feature", "geometry": {"type": "Point", "coordinates": [19.503304, 47.162494]}, "properties": {"Place_name": "T\u00e9cso"}}, {"type": "feature", "geometry": {"type": "Point", "coordinates": [17.6503974, 47.6874569]}, "properties": {"Place_name": "Gy\u00f6r"}}, {"type": "feature", "geometry": {"type": "Point", "coordinates": [19.503304, 47.162494]}, "properties": {"Place_name": "Als\u00f3domboru"}}, {"type": "feature", "geometry": {"type": "Point", "coordinates": [19.503304, 47.162494]}, "properties": {"Place_name": "Domb\u00f3"}}, {"type": "feature", "geometry": {"type": "Point", "coordinates": [19.503304, 47.162494]}, "properties": {"Place_name": "Gice"}}, {"type": "feature", "geometry": {"type": "Point", "coordinates": [19.503304, 47.162494]}, "properties": {"Place_name": "Rimaszombat"}}, {"type": "feature", "geometry": {"type": "Point", "coordinates": [17.1002994, 46.2565653]}, "properties": {"Place_name": "Cs\u00fcrgo"}}, {"type": "feature", "geometry": {"type": "Point", "coordinates": [19.503304, 47.162494]}, "properties": {"Place_name": "Als\u00f3szinev\u00e9r"}}, {"type": "feature", "geometry": {"type": "Point", "coordinates": [17.1634865, 47.11997830000001]}, "properties": {"Place_name": "J\u00e1nosh\u00e1za"}}, {"type": "feature", "geometry": {"type": "Point", "coordinates": [19.503304, 47.162494]}, "properties": {"Place_name": "Berett\u00f3"}}, {"type": "feature", "geometry": {"type": "Point", "coordinates": [19.503304, 47.162494]}, "properties": {"Place_name": "Szobr\u00e1nc"}}, {"type": "feature", "geometry": {"type": "Point", "coordinates": [21.26799002436191, 48.27296063205583]}, "properties": {"Place_name": "Hidegpatak"}}, {"type": "feature", "geometry": {"type": "Point", "coordinates": [19.503304, 47.162494]}, "properties": {"Place_name": "Beregbr\u00f3d"}}, {"type": "feature", "geometry": {"type": "Point", "coordinates": [19.3605431, 47.6007732]}, "properties": {"Place_name": "G\u00f6d\u00f6llo"}}, {"type": "feature", "geometry": {"type": "Point", "coordinates": [19.1319344, 47.561541]}, "properties": {"Place_name": "R\u00e1kospalota"}}, {"type": "feature", "geometry": {"type": "Point", "coordinates": [19.503304, 47.162494]}, "properties": {"Place_name": "Sz\u00e1szovka"}}, {"type": "feature", "geometry": {"type": "Point", "coordinates": [19.503304, 47.162494]}, "properties": {"Place_name": "Podhering"}}, {"type": "feature", "geometry": {"type": "Point", "coordinates": [19.503304, 47.162494]}, "properties": {"Place_name": "Keselymezo"}}, {"type": "feature", "geometry": {"type": "Point", "coordinates": [20.9654647, 48.1026673]}, "properties": {"Place_name": "Gesztely"}}, {"type": "feature", "geometry": {"type": "Point", "coordinates": [19.503304, 47.162494]}, "properties": {"Place_name": "Igl\u00f3"}}, {"type": "feature", "geometry": {"type": "Point", "coordinates": [19.503304, 47.162494]}, "properties": {"Place_name": "Ungv\u00e1r"}}, {"type": "feature", "geometry": {"type": "Point", "coordinates": [19.503304, 47.162494]}, "properties": {"Place_name": "Szerednye"}}, {"type": "feature", "geometry": {"type": "Point", "coordinates": [19.503304, 47.162494]}, "properties": {"Place_name": "Stradna"}}, {"type": "feature", "geometry": {"type": "Point", "coordinates": [19.503304, 47.162494]}, "properties": {"Place_name": "Oroszr\u00e9g"}}, {"type": "feature", "geometry": {"type": "Point", "coordinates": [20.2637492, 46.654789]}, "properties": {"Place_name": "Szentes"}}, {"type": "feature", "geometry": {"type": "Point", "coordinates": [21.8447933, 47.8749081]}, "properties": {"Place_name": "Nagyk\u00e1ll\u00f3"}}, {"type": "feature", "geometry": {"type": "Point", "coordinates": [17.3272097, 47.4596327]}, "properties": {"Place_name": "R\u00e1baszentandr\u00e1s"}}, {"type": "feature", "geometry": {"type": "Point", "coordinates": [17.528832, 47.23249190000001]}, "properties": {"Place_name": "G\u00e1nya"}}, {"type": "feature", "geometry": {"type": "Point", "coordinates": [18.4221358, 47.18602620000001]}, "properties": {"Place_name": "Sz\u00e9kesfeh\u00e9rv\u00e1r"}}, {"type": "feature", "geometry": {"type": "Point", "coordinates": [17.3649851, 46.2261652]}, "properties": {"Place_name": "Nagyat\u00e1d"}}, {"type": "feature", "geometry": {"type": "Point", "coordinates": [19.503304, 47.162494]}, "properties": {"Place_name": "B\u00e1rth\u00e1za"}}, {"type": "feature", "geometry": {"type": "Point", "coordinates": [19.1090853, 47.4433711]}, "properties": {"Place_name": "Pestszenterzs\u00e9bet"}}, {"type": "feature", "geometry": {"type": "Point", "coordinates": [19.503304, 47.162494]}, "properties": {"Place_name": "Nagyberezna"}}, {"type": "feature", "geometry": {"type": "Point", "coordinates": [18.5263534, 46.2981016]}, "properties": {"Place_name": "Bonyh\u00e1d"}}, {"type": "feature", "geometry": {"type": "Point", "coordinates": [19.503304, 47.162494]}, "properties": {"Place_name": "Vad\u00e1szfalva"}}, {"type": "feature", "geometry": {"type": "Point", "coordinates": [19.503304, 47.162494]}, "properties": {"Place_name": "Keterg\u00e9ny"}}, {"type": "feature", "geometry": {"type": "Point", "coordinates": [19.503304, 47.162494]}, "properties": {"Place_name": "Nagyv\u00e1rad"}}, {"type": "feature", "geometry": {"type": "Point", "coordinates": [19.503304, 47.162494]}, "properties": {"Place_name": "Felsoverecke"}}, {"type": "feature", "geometry": {"type": "Point", "coordinates": [19.503304, 47.162494]}, "properties": {"Place_name": "Felsoremete"}}, {"type": "feature", "geometry": {"type": "Point", "coordinates": [18.7221054, 47.3234883]}, "properties": {"Place_name": "Kaj\u00e1sz\u00f3szentp\u00e9ter"}}, {"type": "feature", "geometry": {"type": "Point", "coordinates": [19.503304, 47.162494]}, "properties": {"Place_name": "M\u00e1ramarossziget"}}, {"type": "feature", "geometry": {"type": "Point", "coordinates": [19.0203587, 47.5522901]}, "properties": {"Place_name": "Toronya"}}, {"type": "feature", "geometry": {"type": "Point", "coordinates": [19.780429, 48.0700159]}, "properties": {"Place_name": "Zagyvap\u00e1lfalva"}}, {"type": "feature", "geometry": {"type": "Point", "coordinates": [19.503304, 47.162494]}, "properties": {"Place_name": "Chuszt"}}, {"type": "feature", "geometry": {"type": "Point", "coordinates": [19.503304, 47.162494]}, "properties": {"Place_name": "Bustyah\u00e1za"}}, {"type": "feature", "geometry": {"type": "Point", "coordinates": [19.503304, 47.162494]}, "properties": {"Place_name": "Als\u00f3szine"}}, {"type": "feature", "geometry": {"type": "Point", "coordinates": [21.2438164, 48.0275909]}, "properties": {"Place_name": "Tiszadada"}}, {"type": "feature", "geometry": {"type": "Point", "coordinates": [19.503304, 47.162494]}, "properties": {"Place_name": "Majdan"}}, {"type": "feature", "geometry": {"type": "Point", "coordinates": [19.503304, 47.162494]}, "properties": {"Place_name": "Marosj\u00e1nosi"}}, {"type": "feature", "geometry": {"type": "Point", "coordinates": [19.503304, 47.162494]}, "properties": {"Place_name": "Beregsz\u00e1sz"}}, {"type": "feature", "geometry": {"type": "Point", "coordinates": [19.503304, 47.162494]}, "properties": {"Place_name": "Visken"}}, {"type": "feature", "geometry": {"type": "Point", "coordinates": [17.046715, 47.08163]}, "properties": {"Place_name": "B\u00f6g\u00f6te"}}, {"type": "feature", "geometry": {"type": "Point", "coordinates": [19.503304, 47.162494]}, "properties": {"Place_name": "Arad"}}, {"type": "feature", "geometry": {"type": "Point", "coordinates": [19.503304, 47.162494]}, "properties": {"Place_name": "\u00c9rsek\u00fajv\u00e1r"}}, {"type": "feature", "geometry": {"type": "Point", "coordinates": [19.503304, 47.162494]}, "properties": {"Place_name": "Szajkofalva"}}, {"type": "feature", "geometry": {"type": "Point", "coordinates": [19.503304, 47.162494]}, "properties": {"Place_name": "Dunaszerdahely"}}, {"type": "feature", "geometry": {"type": "Point", "coordinates": [19.503304, 47.162494]}, "properties": {"Place_name": "Szatm\u00e1rn\u00e9meti (Szaplonca)"}}, {"type": "feature", "geometry": {"type": "Point", "coordinates": [19.503304, 47.162494]}, "properties": {"Place_name": "Aknasugatag"}}, {"type": "feature", "geometry": {"type": "Point", "coordinates": [19.503304, 47.162494]}, "properties": {"Place_name": "Kov\u00e1sz\u00f3"}}, {"type": "feature", "geometry": {"type": "Point", "coordinates": [20.7784384, 48.1034775]}, "properties": {"Place_name": "Miskolc"}}, {"type": "feature", "geometry": {"type": "Point", "coordinates": [19.503304, 47.162494]}, "properties": {"Place_name": "Ipolys\u00e1g"}}, {"type": "feature", "geometry": {"type": "Point", "coordinates": [19.6106401, 47.9691969]}, "properties": {"Place_name": "Felsotold"}}, {"type": "feature", "geometry": {"type": "Point", "coordinates": [19.0913148, 47.56489149999999]}, "properties": {"Place_name": "\u00dajpest"}}, {"type": "feature", "geometry": {"type": "Point", "coordinates": [21.9314069, 48.0760479]}, "properties": {"Place_name": "Borzsova"}}, {"type": "feature", "geometry": {"type": "Point", "coordinates": [19.503304, 47.162494]}, "properties": {"Place_name": "Tiszaf\u00e9legyh\u00e1za"}}, {"type": "feature", "geometry": {"type": "Point", "coordinates": [19.1276419, 47.5393638]}, "properties": {"Place_name": "Pest\u00fajhely"}}, {"type": "feature", "geometry": {"type": "Point", "coordinates": [21.2048872, 48.1590429]}, "properties": {"Place_name": "Szerencs"}}, {"type": "feature", "geometry": {"type": "Point", "coordinates": [19.503304, 47.162494]}, "properties": {"Place_name": "Nasz\u00f3d"}}, {"type": "feature", "geometry": {"type": "Point", "coordinates": [19.503304, 47.162494]}, "properties": {"Place_name": "Alpar\u00e9t"}}, {"type": "feature", "geometry": {"type": "Point", "coordinates": [19.503304, 47.162494]}, "properties": {"Place_name": "Voloc"}}, {"type": "feature", "geometry": {"type": "Point", "coordinates": [22.5316392, 48.1055366]}, "properties": {"Place_name": "Tarpa"}}, {"type": "feature", "geometry": {"type": "Point", "coordinates": [22.1014229, 48.2690868]}, "properties": {"Place_name": "F\u00e9nyeslitke"}}, {"type": "feature", "geometry": {"type": "Point", "coordinates": [19.503304, 47.162494]}, "properties": {"Place_name": "Kassa"}}, {"type": "feature", "geometry": {"type": "Point", "coordinates": [19.503304, 47.162494]}, "properties": {"Place_name": "Repede"}}, {"type": "feature", "geometry": {"type": "Point", "coordinates": [19.503304, 47.162494]}, "properties": {"Place_name": "Szenteske"}}, {"type": "feature", "geometry": {"type": "Point", "coordinates": [19.093871, 47.411309]}, "properties": {"Place_name": "K\u00f6k\u00e9nyes"}}, {"type": "feature", "geometry": {"type": "Point", "coordinates": [19.503304, 47.162494]}, "properties": {"Place_name": "Beregard\u00f3"}}, {"type": "feature", "geometry": {"type": "Point", "coordinates": [19.503304, 47.162494]}, "properties": {"Place_name": "Porostov"}}, {"type": "feature", "geometry": {"type": "Point", "coordinates": [18.9167877, 46.806202]}, "properties": {"Place_name": "Dunaf\u00f6ldv\u00e1r"}}, {"type": "feature", "geometry": {"type": "Point", "coordinates": [21.7087174, 48.0497052]}, "properties": {"Place_name": "K\u00f3taj"}}, {"type": "feature", "geometry": {"type": "Point", "coordinates": [19.503304, 47.162494]}, "properties": {"Place_name": "Kov\u00e1csr\u00e9t"}}, {"type": "feature", "geometry": {"type": "Point", "coordinates": [20.5698525, 47.8074617]}, "properties": {"Place_name": "Mezok\u00f6vesd"}}, {"type": "feature", "geometry": {"type": "Point", "coordinates": [19.503304, 47.162494]}, "properties": {"Place_name": "Nagyk\u00e1roly"}}, {"type": "feature", "geometry": {"type": "Point", "coordinates": [19.503304, 47.162494]}, "properties": {"Place_name": "Petrova"}}, {"type": "feature", "geometry": {"type": "Point", "coordinates": [19.503304, 47.162494]}, "properties": {"Place_name": "Felsovis\u00f3"}}]}