{"type": "FeatureCollection", "features": [{"type": "feature", "geometry": {"type": "Point", "coordinates": [19.040235, 47.497912]}, "properties": {"Place_name": "Budapest"}}, {"type": "feature", "geometry": {"type": "Point", "coordinates": [24.3126853, 45.8178615]}, "properties": {"Place_name": "Fels?veresmart"}}, {"type": "feature", "geometry": {"type": "Point", "coordinates": [22.7117106, 48.4493055]}, "properties": {"Place_name": "Munk\u00e1cs"}}, {"type": "feature", "geometry": {"type": "Point", "coordinates": [18.7408001, 49.21944980000001]}, "properties": {"Place_name": "Zsolna"}}, {"type": "feature", "geometry": {"type": "Point", "coordinates": [19.7902813, 49.55137449999999]}, "properties": {"Place_name": "##sz\u00e1rnya"}}, {"type": "feature", "geometry": {"type": "Point", "coordinates": [19.7059592, 47.92414040000001]}, "properties": {"Place_name": "P\u00e1szt\u00f3"}}, {"type": "feature", "geometry": {"type": "Point", "coordinates": [23.8775791, 47.9557094]}, "properties": {"Place_name": "Aknaszlatina"}}, {"type": "feature", "geometry": {"type": "Point", "coordinates": [18.0012442, 47.592676]}, "properties": {"Place_name": "T\u00e1rk\u00e1ny"}}, {"type": "feature", "geometry": {"type": "Point", "coordinates": [23.0332798, 48.5637949]}, "properties": {"Place_name": "H\u00e1rsfalva"}}, {"type": "feature", "geometry": {"type": "Point", "coordinates": [23.2972476, 48.17346329999999]}, "properties": {"Place_name": "Huszt"}}, {"type": "feature", "geometry": {"type": "Point", "coordinates": [23.041894, 48.3117809]}, "properties": {"Place_name": "Ilosva"}}, {"type": "feature", "geometry": {"type": "Point", "coordinates": [21.2784255, 46.6473027]}, "properties": {"Place_name": "Gyula"}}, {"type": "feature", "geometry": {"type": "Point", "coordinates": [16.3718643, 48.2081664]}, "properties": {"Place_name": "Wien"}}, {"type": "feature", "geometry": {"type": "Point", "coordinates": [73.1655392, 22.3058128]}, "properties": {"Place_name": "T\u00e9cso"}}, {"type": "feature", "geometry": {"type": "Point", "coordinates": [17.6503974, 47.6874569]}, "properties": {"Place_name": "Gy\u00f6r"}}, {"type": "feature", "geometry": {"type": "Point", "coordinates": [16.8105793, 46.31681380000001]}, "properties": {"Place_name": "Als\u00f3domboru"}}, {"type": "feature", "geometry": {"type": "Point", "coordinates": [20.0195452, 48.3812295]}, "properties": {"Place_name": "Rimaszombat"}}, {"type": "feature", "geometry": {"type": "Point", "coordinates": [17.1002994, 46.2565653]}, "properties": {"Place_name": "Cs\u00fcrgo"}}, {"type": "feature", "geometry": {"type": "Point", "coordinates": [23.6229395, 48.4851578]}, "properties": {"Place_name": "Als\u00f3szinev\u00e9r"}}, {"type": "feature", "geometry": {"type": "Point", "coordinates": [17.1634865, 47.11997830000001]}, "properties": {"Place_name": "J\u00e1nosh\u00e1za"}}, {"type": "feature", "geometry": {"type": "Point", "coordinates": [22.1794779, 48.74576889999999]}, "properties": {"Place_name": "Szobr\u00e1nc"}}, {"type": "feature", "geometry": {"type": "Point", "coordinates": [25.5065929, 45.5061204]}, "properties": {"Place_name": "Hidegpatak"}}, {"type": "feature", "geometry": {"type": "Point", "coordinates": [19.3605431, 47.6007732]}, "properties": {"Place_name": "G\u00f6d\u00f6llo"}}, {"type": "feature", "geometry": {"type": "Point", "coordinates": [19.1319344, 47.561541]}, "properties": {"Place_name": "R\u00e1kospalota"}}, {"type": "feature", "geometry": {"type": "Point", "coordinates": [23.336521, 48.2398903]}, "properties": {"Place_name": "Keselymezo"}}, {"type": "feature", "geometry": {"type": "Point", "coordinates": [20.9654647, 48.1026673]}, "properties": {"Place_name": "Gesztely"}}, {"type": "feature", "geometry": {"type": "Point", "coordinates": [22.287883, 48.6208]}, "properties": {"Place_name": "Ungv\u00e1r"}}, {"type": "feature", "geometry": {"type": "Point", "coordinates": [22.5089067, 48.5412136]}, "properties": {"Place_name": "Szerednye"}}, {"type": "feature", "geometry": {"type": "Point", "coordinates": [20.2637492, 46.654789]}, "properties": {"Place_name": "Szentes"}}, {"type": "feature", "geometry": {"type": "Point", "coordinates": [21.8447933, 47.8749081]}, "properties": {"Place_name": "Nagyk\u00e1ll\u00f3"}}, {"type": "feature", "geometry": {"type": "Point", "coordinates": [17.3272097, 47.4596327]}, "properties": {"Place_name": "R\u00e1baszentandr\u00e1s"}}, {"type": "feature", "geometry": {"type": "Point", "coordinates": [18.4221358, 47.18602620000001]}, "properties": {"Place_name": "Sz\u00e9kesfeh\u00e9rv\u00e1r"}}, {"type": "feature", "geometry": {"type": "Point", "coordinates": [17.3649851, 46.2261652]}, "properties": {"Place_name": "Nagyat\u00e1d"}}, {"type": "feature", "geometry": {"type": "Point", "coordinates": [-0.6442249999999999, 43.787361]}, "properties": {"Place_name": "B\u00e1rth\u00e1za"}}, {"type": "feature", "geometry": {"type": "Point", "coordinates": [19.1090853, 47.4433711]}, "properties": {"Place_name": "Pestszenterzs\u00e9bet"}}, {"type": "feature", "geometry": {"type": "Point", "coordinates": [22.4539975, 48.8851206]}, "properties": {"Place_name": "Nagyberezna"}}, {"type": "feature", "geometry": {"type": "Point", "coordinates": [18.5263534, 46.2981016]}, "properties": {"Place_name": "Bonyh\u00e1d"}}, {"type": "feature", "geometry": {"type": "Point", "coordinates": [22.3206458, 48.8062542]}, "properties": {"Place_name": "Vad\u00e1szfalva"}}, {"type": "feature", "geometry": {"type": "Point", "coordinates": [22.2740915, 48.5826327]}, "properties": {"Place_name": "Keterg\u00e9ny"}}, {"type": "feature", "geometry": {"type": "Point", "coordinates": [21.9189438, 47.04650050000001]}, "properties": {"Place_name": "Nagyv\u00e1rad"}}, {"type": "feature", "geometry": {"type": "Point", "coordinates": [23.1416082, 48.7471899]}, "properties": {"Place_name": "Felsoverecke"}}, {"type": "feature", "geometry": {"type": "Point", "coordinates": [22.8612352, 48.2677393]}, "properties": {"Place_name": "Felsoremete"}}, {"type": "feature", "geometry": {"type": "Point", "coordinates": [18.7221054, 47.3234883]}, "properties": {"Place_name": "Kaj\u00e1sz\u00f3szentp\u00e9ter"}}, {"type": "feature", "geometry": {"type": "Point", "coordinates": [23.8976506, 47.927707]}, "properties": {"Place_name": "M\u00e1ramarossziget"}}, {"type": "feature", "geometry": {"type": "Point", "coordinates": [23.5970302, 48.6695004]}, "properties": {"Place_name": "Toronya"}}, {"type": "feature", "geometry": {"type": "Point", "coordinates": [19.780429, 48.0700159]}, "properties": {"Place_name": "Zagyvap\u00e1lfalva"}}, {"type": "feature", "geometry": {"type": "Point", "coordinates": [71.236153, 41.005341]}, "properties": {"Place_name": "Chuszt"}}, {"type": "feature", "geometry": {"type": "Point", "coordinates": [23.4827736, 48.04966839999999]}, "properties": {"Place_name": "Bustyah\u00e1za"}}, {"type": "feature", "geometry": {"type": "Point", "coordinates": [21.2438164, 48.0275909]}, "properties": {"Place_name": "Tiszadada"}}, {"type": "feature", "geometry": {"type": "Point", "coordinates": [22.6370954, 48.1971868]}, "properties": {"Place_name": "Beregsz\u00e1sz"}}, {"type": "feature", "geometry": {"type": "Point", "coordinates": [17.046715, 47.08163]}, "properties": {"Place_name": "B\u00f6g\u00f6te"}}, {"type": "feature", "geometry": {"type": "Point", "coordinates": [21.3122677, 46.1865606]}, "properties": {"Place_name": "Arad"}}, {"type": "feature", "geometry": {"type": "Point", "coordinates": [18.1571098, 47.9881643]}, "properties": {"Place_name": "\u00c9rsek\u00fajv\u00e1r"}}, {"type": "feature", "geometry": {"type": "Point", "coordinates": [23.1152988, 48.3593485]}, "properties": {"Place_name": "Szajkofalva"}}, {"type": "feature", "geometry": {"type": "Point", "coordinates": [17.6206307, 47.9916348]}, "properties": {"Place_name": "Dunaszerdahely"}}, {"type": "feature", "geometry": {"type": "Point", "coordinates": [22.8575926, 47.8016702]}, "properties": {"Place_name": "Szatm\u00e1rn\u00e9meti (Szaplonca)"}}, {"type": "feature", "geometry": {"type": "Point", "coordinates": [23.9411193, 47.7794585]}, "properties": {"Place_name": "Aknasugatag"}}, {"type": "feature", "geometry": {"type": "Point", "coordinates": [22.7710858, 48.186344]}, "properties": {"Place_name": "Kov\u00e1sz\u00f3"}}, {"type": "feature", "geometry": {"type": "Point", "coordinates": [20.7784384, 48.1034775]}, "properties": {"Place_name": "Miskolc"}}, {"type": "feature", "geometry": {"type": "Point", "coordinates": [18.9487108, 48.0692045]}, "properties": {"Place_name": "Ipolys\u00e1g"}}, {"type": "feature", "geometry": {"type": "Point", "coordinates": [19.6106401, 47.9691969]}, "properties": {"Place_name": "Felsotold"}}, {"type": "feature", "geometry": {"type": "Point", "coordinates": [19.0913148, 47.56489149999999]}, "properties": {"Place_name": "\u00dajpest"}}, {"type": "feature", "geometry": {"type": "Point", "coordinates": [21.9314069, 48.0760479]}, "properties": {"Place_name": "Borzsova"}}, {"type": "feature", "geometry": {"type": "Point", "coordinates": [19.1276419, 47.5393638]}, "properties": {"Place_name": "Pest\u00fajhely"}}, {"type": "feature", "geometry": {"type": "Point", "coordinates": [21.2048872, 48.1590429]}, "properties": {"Place_name": "Szerencs"}}, {"type": "feature", "geometry": {"type": "Point", "coordinates": [24.3973258, 47.2921849]}, "properties": {"Place_name": "Nasz\u00f3d"}}, {"type": "feature", "geometry": {"type": "Point", "coordinates": [23.647865, 47.1439283]}, "properties": {"Place_name": "Alpar\u00e9t"}}, {"type": "feature", "geometry": {"type": "Point", "coordinates": [23.1850055, 48.7114913]}, "properties": {"Place_name": "Voloc"}}, {"type": "feature", "geometry": {"type": "Point", "coordinates": [22.5316392, 48.1055366]}, "properties": {"Place_name": "Tarpa"}}, {"type": "feature", "geometry": {"type": "Point", "coordinates": [22.1014229, 48.2690868]}, "properties": {"Place_name": "F\u00e9nyeslitke"}}, {"type": "feature", "geometry": {"type": "Point", "coordinates": [22.1430035, 48.6835688]}, "properties": {"Place_name": "Szenteske"}}, {"type": "feature", "geometry": {"type": "Point", "coordinates": [23.7370256, 48.0717812]}, "properties": {"Place_name": "K\u00f6k\u00e9nyes"}}, {"type": "feature", "geometry": {"type": "Point", "coordinates": [22.1772664, 48.6972824]}, "properties": {"Place_name": "Porostov"}}, {"type": "feature", "geometry": {"type": "Point", "coordinates": [18.9167877, 46.806202]}, "properties": {"Place_name": "Dunaf\u00f6ldv\u00e1r"}}, {"type": "feature", "geometry": {"type": "Point", "coordinates": [21.7087174, 48.0497052]}, "properties": {"Place_name": "K\u00f3taj"}}, {"type": "feature", "geometry": {"type": "Point", "coordinates": [23.2604434, 48.4470051]}, "properties": {"Place_name": "Kov\u00e1csr\u00e9t"}}, {"type": "feature", "geometry": {"type": "Point", "coordinates": [20.5698525, 47.8074617]}, "properties": {"Place_name": "Mezok\u00f6vesd"}}, {"type": "feature", "geometry": {"type": "Point", "coordinates": [22.462143, 47.6814513]}, "properties": {"Place_name": "Nagyk\u00e1roly"}}, {"type": "feature", "geometry": {"type": "Point", "coordinates": [24.4396734, 47.7150521]}, "properties": {"Place_name": "Felsovis\u00f3"}}, {"type": "feature", "geometry": {"type": "Point", "coordinates": [22.8575926, 47.8016702]}, "properties": {"Place_name": "Szatm\u00e1rn\u00e9meti"}}, {"type": "feature", "geometry": {"type": "Point", "coordinates": [23.8775791, 47.9557094]}, "properties": {"Place_name": "Akna-Szlatina"}}, {"type": "feature", "geometry": {"type": "Point", "coordinates": [22.683889, 48.433056]}, "properties": {"Place_name": "V\u00e1rpal\u00e1nka"}}, {"type": "feature", "geometry": {"type": "Point", "coordinates": [22.9020738, 48.3504123]}, "properties": {"Place_name": "Dr\u00e1gab\u00e1tfalva"}}, {"type": "feature", "geometry": {"type": "Point", "coordinates": [22.0749232, 48.5538608]}, "properties": {"Place_name": "Nagykapos"}}, {"type": "feature", "geometry": {"type": "Point", "coordinates": [19.6491611, 49.0538247]}, "properties": {"Place_name": "N\u00e9metporuba"}}, {"type": "feature", "geometry": {"type": "Point", "coordinates": [21.8122197, 47.2851817]}, "properties": {"Place_name": "Pocsaj"}}, {"type": "feature", "geometry": {"type": "Point", "coordinates": [23.8349311, 48.004413]}, "properties": {"Place_name": "Als\u00f3apsa"}}, {"type": "feature", "geometry": {"type": "Point", "coordinates": [22.9948916, 48.54285669999999]}, "properties": {"Place_name": "Szolyva"}}, {"type": "feature", "geometry": {"type": "Point", "coordinates": [22.5958253, 48.4706824]}, "properties": {"Place_name": "Beregr\u00e1kos"}}, {"type": "feature", "geometry": {"type": "Point", "coordinates": [18.8546832, 46.6060722]}, "properties": {"Place_name": "Paks"}}, {"type": "feature", "geometry": {"type": "Point", "coordinates": [17.4371124, 46.8834475]}, "properties": {"Place_name": "Tapolca"}}, {"type": "feature", "geometry": {"type": "Point", "coordinates": [18.232266, 46.0727345]}, "properties": {"Place_name": "P\u00e9cs"}}, {"type": "feature", "geometry": {"type": "Point", "coordinates": [22.8417209, 48.1100924]}, "properties": {"Place_name": "Tisza\u00fajlak"}}, {"type": "feature", "geometry": {"type": "Point", "coordinates": [17.8839478, 47.3639954]}, "properties": {"Place_name": "Bakonyszentkir\u00e1ly"}}, {"type": "feature", "geometry": {"type": "Point", "coordinates": [23.4324536, 48.2679203]}, "properties": {"Place_name": "Herincse"}}, {"type": "feature", "geometry": {"type": "Point", "coordinates": [22.4571681, 48.2539304]}, "properties": {"Place_name": "Mez\u00f6kaszony"}}, {"type": "feature", "geometry": {"type": "Point", "coordinates": [22.5152721, 48.4833439]}, "properties": {"Place_name": "Ign\u00e9c"}}, {"type": "feature", "geometry": {"type": "Point", "coordinates": [20.3300315, 46.4181262]}, "properties": {"Place_name": "H\u00f3dmezov\u00e1s\u00e1rhely"}}, {"type": "feature", "geometry": {"type": "Point", "coordinates": [23.0974009, 48.77244719999999]}, "properties": {"Place_name": "Als\u00f3verecke"}}, {"type": "feature", "geometry": {"type": "Point", "coordinates": [20.1414253, 46.2530102]}, "properties": {"Place_name": "Szeged"}}, {"type": "feature", "geometry": {"type": "Point", "coordinates": [19.0107327, 47.0903328]}, "properties": {"Place_name": "D\u00f6ms\u00f6d"}}, {"type": "feature", "geometry": {"type": "Point", "coordinates": [24.3450737, 48.2595628]}, "properties": {"Place_name": "K\u00f6r\u00f6smezo"}}, {"type": "feature", "geometry": {"type": "Point", "coordinates": [22.2094274, 48.5825973]}, "properties": {"Place_name": "Botfalva"}}, {"type": "feature", "geometry": {"type": "Point", "coordinates": [22.130818, 47.8390013]}, "properties": {"Place_name": "Ny\u00edrb\u00e1tor"}}, {"type": "feature", "geometry": {"type": "Point", "coordinates": [16.3718643, 48.2081664]}, "properties": {"Place_name": "B\u00e9cs"}}, {"type": "feature", "geometry": {"type": "Point", "coordinates": [19.0913148, 47.56489149999999]}, "properties": {"Place_name": "Ujpest"}}, {"type": "feature", "geometry": {"type": "Point", "coordinates": [20.9595443, 47.0313217]}, "properties": {"Place_name": "D\u00e9vav\u00e1nya"}}, {"type": "feature", "geometry": {"type": "Point", "coordinates": [19.676666, 47.6656965]}, "properties": {"Place_name": "Hatvan"}}, {"type": "feature", "geometry": {"type": "Point", "coordinates": [17.7331443, 47.1147506]}, "properties": {"Place_name": "Szentg\u00e1l"}}, {"type": "feature", "geometry": {"type": "Point", "coordinates": [18.2230926, 48.1548154]}, "properties": {"Place_name": "Csornok"}}, {"type": "feature", "geometry": {"type": "Point", "coordinates": [20.7618268, 48.5452009]}, "properties": {"Place_name": "Komj\u00e1ti"}}, {"type": "feature", "geometry": {"type": "Point", "coordinates": [18.1267006, 47.7390852]}, "properties": {"Place_name": "Kom\u00e1rom"}}, {"type": "feature", "geometry": {"type": "Point", "coordinates": [17.9093019, 47.1028087]}, "properties": {"Place_name": "Veszpr\u00e9m"}}, {"type": "feature", "geometry": {"type": "Point", "coordinates": [23.9579882, 48.0757479]}, "properties": {"Place_name": "Kisapsa"}}, {"type": "feature", "geometry": {"type": "Point", "coordinates": [22.9020738, 48.3504123]}, "properties": {"Place_name": "Dr\u00e1gab\u00e1rdfalva"}}, {"type": "feature", "geometry": {"type": "Point", "coordinates": [19.8222544, 48.2706491]}, "properties": {"Place_name": "F\u00fclek"}}, {"type": "feature", "geometry": {"type": "Point", "coordinates": [19.2937136, 48.0711866]}, "properties": {"Place_name": "Balassagyarmat"}}, {"type": "feature", "geometry": {"type": "Point", "coordinates": [22.462436, 48.8291365]}, "properties": {"Place_name": "Mircse"}}, {"type": "feature", "geometry": {"type": "Point", "coordinates": [23.104728, 41.8444922]}, "properties": {"Place_name": "Polena"}}, {"type": "feature", "geometry": {"type": "Point", "coordinates": [23.1369121, 48.1525702]}, "properties": {"Place_name": "Kir\u00e1lyh\u00e1za"}}, {"type": "feature", "geometry": {"type": "Point", "coordinates": [23.1880051, 48.1364648]}, "properties": {"Place_name": "Csarnat\u00f6"}}, {"type": "feature", "geometry": {"type": "Point", "coordinates": [20.5323841, 48.6561405]}, "properties": {"Place_name": "Rozsny\u00f3"}}, {"type": "feature", "geometry": {"type": "Point", "coordinates": [22.6955462, 48.6364217]}, "properties": {"Place_name": "N\u00e1daspatak"}}, {"type": "feature", "geometry": {"type": "Point", "coordinates": [21.1185953, 47.3216529]}, "properties": {"Place_name": "P\u00fcsp\u00f6klad\u00e1ny"}}, {"type": "feature", "geometry": {"type": "Point", "coordinates": [21.0877309, 46.6735939]}, "properties": {"Place_name": "B\u00e9k\u00e9scsaba"}}, {"type": "feature", "geometry": {"type": "Point", "coordinates": [23.6267459, 48.15096610000001]}, "properties": {"Place_name": "Uglya"}}, {"type": "feature", "geometry": {"type": "Point", "coordinates": [16.9355448, 47.29410499999999]}, "properties": {"Place_name": "R\u00e1babogyoszl\u00f3"}}, {"type": "feature", "geometry": {"type": "Point", "coordinates": [24.0131328, 47.96181989999999]}, "properties": {"Place_name": "Nagybocsk\u00f3"}}, {"type": "feature", "geometry": {"type": "Point", "coordinates": [21.90337, 47.3788079]}, "properties": {"Place_name": "Nagyl\u00e9ta"}}, {"type": "feature", "geometry": {"type": "Point", "coordinates": [22.9825789, 48.2376578]}, "properties": {"Place_name": "Magyarkomj\u00e1t"}}, {"type": "feature", "geometry": {"type": "Point", "coordinates": [22.6230638, 46.2674979]}, "properties": {"Place_name": "Kishalm\u00e1gy"}}, {"type": "feature", "geometry": {"type": "Point", "coordinates": [21.2754012, 49.2945857]}, "properties": {"Place_name": "B\u00e1rtfa"}}, {"type": "feature", "geometry": {"type": "Point", "coordinates": [22.4381012, 48.9913689]}, "properties": {"Place_name": "Ulicskriva"}}, {"type": "feature", "geometry": {"type": "Point", "coordinates": [23.5849881, 47.6567387]}, "properties": {"Place_name": "Nagyb\u00e1nya"}}, {"type": "feature", "geometry": {"type": "Point", "coordinates": [-76.6305847, 39.2521858]}, "properties": {"Place_name": "Barcs"}}, {"type": "feature", "geometry": {"type": "Point", "coordinates": [22.3161391, 47.9515675]}, "properties": {"Place_name": "M\u00e1t\u00e9szalka"}}, {"type": "feature", "geometry": {"type": "Point", "coordinates": [20.7274018, 51.1950235]}, "properties": {"Place_name": "Majd\u00e1nka"}}, {"type": "feature", "geometry": {"type": "Point", "coordinates": [24.700762, 46.7710931]}, "properties": {"Place_name": "Sz\u00e1szr\u00e9g"}}, {"type": "feature", "geometry": {"type": "Point", "coordinates": [23.9117575, 47.98488220000001]}, "properties": {"Place_name": "K\u00f6z\u00e9papsa"}}, {"type": "feature", "geometry": {"type": "Point", "coordinates": [22.9443562, 48.2791875]}, "properties": {"Place_name": "Beregk\u00f6vesd"}}, {"type": "feature", "geometry": {"type": "Point", "coordinates": [20.7363644, 46.4107596]}, "properties": {"Place_name": "T\u00f3tkoml\u00f3s"}}, {"type": "feature", "geometry": {"type": "Point", "coordinates": [17.4376764, 47.1035622]}, "properties": {"Place_name": "Devecser"}}, {"type": "feature", "geometry": {"type": "Point", "coordinates": [18.1792578, 48.08840430000001]}, "properties": {"Place_name": "Nagysur\u00e1ny"}}, {"type": "feature", "geometry": {"type": "Point", "coordinates": [53.828305, 59.38099829999999]}, "properties": {"Place_name": "Berezova"}}, {"type": "feature", "geometry": {"type": "Point", "coordinates": [21.9780619, 48.4249637]}, "properties": {"Place_name": "Kir\u00e1lyhelmec"}}, {"type": "feature", "geometry": {"type": "Point", "coordinates": [22.9198853, 52.0042181]}, "properties": {"Place_name": "Dolha"}}, {"type": "feature", "geometry": {"type": "Point", "coordinates": [17.1077477, 48.1485965]}, "properties": {"Place_name": "Poszony"}}, {"type": "feature", "geometry": {"type": "Point", "coordinates": [23.0205587, 48.0711753]}, "properties": {"Place_name": "Csepe"}}, {"type": "feature", "geometry": {"type": "Point", "coordinates": [22.2699385, 48.0243439]}, "properties": {"Place_name": "Ny\u00edrparasznya"}}, {"type": "feature", "geometry": {"type": "Point", "coordinates": [23.080051, 48.3562913]}, "properties": {"Place_name": "Ilonca"}}, {"type": "feature", "geometry": {"type": "Point", "coordinates": [17.0239011, 47.4320792]}, "properties": {"Place_name": "Cs\u00e1nig"}}, {"type": "feature", "geometry": {"type": "Point", "coordinates": [22.1842213, 48.8489529]}, "properties": {"Place_name": "Remetevasgy\u00e1r"}}, {"type": "feature", "geometry": {"type": "Point", "coordinates": [22.8097434, 48.4907371]}, "properties": {"Place_name": "Szentmikl\u00f3s"}}, {"type": "feature", "geometry": {"type": "Point", "coordinates": [20.3772284, 47.9025348]}, "properties": {"Place_name": "Eger"}}, {"type": "feature", "geometry": {"type": "Point", "coordinates": [21.7244053, 47.9495324]}, "properties": {"Place_name": "Ny\u00edregyh\u00e1za"}}, {"type": "feature", "geometry": {"type": "Point", "coordinates": [18.5688153, 47.9643512]}, "properties": {"Place_name": "\u00c9rsekk\u00e9ty"}}, {"type": "feature", "geometry": {"type": "Point", "coordinates": [20.5266647, 47.2492059]}, "properties": {"Place_name": "Fegyvernek"}}, {"type": "feature", "geometry": {"type": "Point", "coordinates": [23.0302124, 48.14634909999999]}, "properties": {"Place_name": "Nagysz\u00f6ll\u00f6s"}}, {"type": "feature", "geometry": {"type": "Point", "coordinates": [20.1981562, 46.8021192]}, "properties": {"Place_name": "Szelev\u00e9ny"}}, {"type": "feature", "geometry": {"type": "Point", "coordinates": [22.2906383, 47.1104551]}, "properties": {"Place_name": "Mez?k\u00f6vesd"}}, {"type": "feature", "geometry": {"type": "Point", "coordinates": [21.9085991, 47.6899404]}, "properties": {"Place_name": "Ny\u00edradony"}}, {"type": "feature", "geometry": {"type": "Point", "coordinates": [23.3978165, 48.1204087]}, "properties": {"Place_name": "Szeklence"}}, {"type": "feature", "geometry": {"type": "Point", "coordinates": [18.1700065, 48.5589454]}, "properties": {"Place_name": "Nagytapolcs\u00e1ny"}}, {"type": "feature", "geometry": {"type": "Point", "coordinates": [19.2035068, 45.8523803]}, "properties": {"Place_name": "Nemesmilitics"}}, {"type": "feature", "geometry": {"type": "Point", "coordinates": [22.229107, 49.0018008]}, "properties": {"Place_name": "Takcs\u00e1ny"}}, {"type": "feature", "geometry": {"type": "Point", "coordinates": [19.4183349, 48.5587115]}, "properties": {"Place_name": "Gyetva"}}, {"type": "feature", "geometry": {"type": "Point", "coordinates": [21.3417333, 47.6145296]}, "properties": {"Place_name": "Balmaz\u00fajv\u00e1ros"}}, {"type": "feature", "geometry": {"type": "Point", "coordinates": [21.8361359, 48.6592491]}, "properties": {"Place_name": "Lazony"}}, {"type": "feature", "geometry": {"type": "Point", "coordinates": [20.9051607, 47.8207081]}, "properties": {"Place_name": "Mezocs\u00e1t"}}, {"type": "feature", "geometry": {"type": "Point", "coordinates": [19.8515197, 46.7112802]}, "properties": {"Place_name": "Kiskunf\u00e9legyh\u00e1za"}}, {"type": "feature", "geometry": {"type": "Point", "coordinates": [18.7769981, 48.14846439999999]}, "properties": {"Place_name": "H\u00e9vmagyarad"}}, {"type": "feature", "geometry": {"type": "Point", "coordinates": [19.0970722, 47.3536817]}, "properties": {"Place_name": "Dunaharaszti"}}, {"type": "feature", "geometry": {"type": "Point", "coordinates": [-77.4264912, 38.8965349]}, "properties": {"Place_name": "Sirok"}}, {"type": "feature", "geometry": {"type": "Point", "coordinates": [21.682342, 48.4559752]}, "properties": {"Place_name": "Kistoronya"}}, {"type": "feature", "geometry": {"type": "Point", "coordinates": [19.9294927, 47.7772651]}, "properties": {"Place_name": "Gy\u00f6ngy\u00f6s"}}, {"type": "feature", "geometry": {"type": "Point", "coordinates": [19.066142, 47.4243579]}, "properties": {"Place_name": "Csepel"}}, {"type": "feature", "geometry": {"type": "Point", "coordinates": [22.948212, 48.0988541]}, "properties": {"Place_name": "Tiszas\u00e1rv\u00e1r"}}, {"type": "feature", "geometry": {"type": "Point", "coordinates": [18.2414807, 46.9326943]}, "properties": {"Place_name": "Enying"}}, {"type": "feature", "geometry": {"type": "Point", "coordinates": [22.3883812, 47.8650809]}, "properties": {"Place_name": "Nagyecsed"}}, {"type": "feature", "geometry": {"type": "Point", "coordinates": [22.1497666, 47.9341371]}, "properties": {"Place_name": "K\u00e1ntorj\u00e1nosi"}}, {"type": "feature", "geometry": {"type": "Point", "coordinates": [24.700762, 46.7710931]}, "properties": {"Place_name": "Sz\u00e1szr\u00e9gen"}}, {"type": "feature", "geometry": {"type": "Point", "coordinates": [24.5514392, 46.5385862]}, "properties": {"Place_name": "Marosv\u00e1s\u00e1rhely"}}, {"type": "feature", "geometry": {"type": "Point", "coordinates": [19.7999813, 48.0935237]}, "properties": {"Place_name": "Salg\u00f3tarj\u00e1n"}}, {"type": "feature", "geometry": {"type": "Point", "coordinates": [20.047408, 45.614386]}, "properties": {"Place_name": "\u00d3becse"}}, {"type": "feature", "geometry": {"type": "Point", "coordinates": [19.244737, 49.20529699999999]}, "properties": {"Place_name": "Nagyfalu (Veli#na)"}}, {"type": "feature", "geometry": {"type": "Point", "coordinates": [22.4723243, 48.7359203]}, "properties": {"Place_name": "Perecseny"}}, {"type": "feature", "geometry": {"type": "Point", "coordinates": [20.3500536, 48.0578657]}, "properties": {"Place_name": "Beregpapfalva"}}, {"type": "feature", "geometry": {"type": "Point", "coordinates": [18.3896419, 47.56945289999999]}, "properties": {"Place_name": "B\u00e1nhida"}}, {"type": "feature", "geometry": {"type": "Point", "coordinates": [18.1452879, 46.3828653]}, "properties": {"Place_name": "Domb\u00f3v\u00e1r"}}, {"type": "feature", "geometry": {"type": "Point", "coordinates": [17.6742282, 46.7098826]}, "properties": {"Place_name": "Sz\u00f6ll\u00f6sgy\u00f6r\u00f6k"}}, {"type": "feature", "geometry": {"type": "Point", "coordinates": [21.8889241, 48.25589369999999]}, "properties": {"Place_name": "Cig\u00e1nd"}}, {"type": "feature", "geometry": {"type": "Point", "coordinates": [22.7117106, 48.4493055]}, "properties": {"Place_name": "Munk\u00e1cs-V\u00e1ralja"}}, {"type": "feature", "geometry": {"type": "Point", "coordinates": [-123.208666, 39.150707]}, "properties": {"Place_name": "P\u00e1trona"}}, {"type": "feature", "geometry": {"type": "Point", "coordinates": [36.67539319999999, 50.19127570000001]}, "properties": {"Place_name": "Ternova"}}, {"type": "feature", "geometry": {"type": "Point", "coordinates": [20.3222421, 48.4227901]}, "properties": {"Place_name": "Tornalja"}}, {"type": "feature", "geometry": {"type": "Point", "coordinates": [19.1430149, 47.4457289]}, "properties": {"Place_name": "Kispest"}}, {"type": "feature", "geometry": {"type": "Point", "coordinates": [18.9840376, 46.5281229]}, "properties": {"Place_name": "Kalocsa"}}, {"type": "feature", "geometry": {"type": "Point", "coordinates": [19.1746722, 47.5108652]}, "properties": {"Place_name": "Sashalom"}}, {"type": "feature", "geometry": {"type": "Point", "coordinates": [22.287883, 48.6208]}, "properties": {"Place_name": "Felsoverecke \u00e9s Ungv\u00e1r"}}, {"type": "feature", "geometry": {"type": "Point", "coordinates": [17.6500124, 46.5831195]}, "properties": {"Place_name": "Somogyv\u00e1r"}}, {"type": "feature", "geometry": {"type": "Point", "coordinates": [23.4322848, 48.029128]}, "properties": {"Place_name": "Visk"}}, {"type": "feature", "geometry": {"type": "Point", "coordinates": [19.0585821, 47.5843759]}, "properties": {"Place_name": "Csillaghegy"}}, {"type": "feature", "geometry": {"type": "Point", "coordinates": [19.119317, 47.4332879]}, "properties": {"Place_name": "Pesterzs\u00e9bet"}}, {"type": "feature", "geometry": {"type": "Point", "coordinates": [22.0823558, 48.2181151]}, "properties": {"Place_name": "Kisv\u00e1rda"}}, {"type": "feature", "geometry": {"type": "Point", "coordinates": [19.1660152, 47.5250909]}, "properties": {"Place_name": "R\u00e1kosszentmih\u00e1ly"}}, {"type": "feature", "geometry": {"type": "Point", "coordinates": [23.041894, 48.3117809]}, "properties": {"Place_name": "Irsava"}}, {"type": "feature", "geometry": {"type": "Point", "coordinates": [22.5708367, 48.5982586]}, "properties": {"Place_name": "Nagygajdos"}}, {"type": "feature", "geometry": {"type": "Point", "coordinates": [17.7266636, 48.18954129999999]}, "properties": {"Place_name": "Gal\u00e1nta"}}, {"type": "feature", "geometry": {"type": "Point", "coordinates": [21.1673945, 48.5976622]}, "properties": {"Place_name": "Nagyida"}}, {"type": "feature", "geometry": {"type": "Point", "coordinates": [19.209843, 47.4281229]}, "properties": {"Place_name": "Pestszentl?rinc"}}, {"type": "feature", "geometry": {"type": "Point", "coordinates": [16.9294867, 47.2524196]}, "properties": {"Place_name": "S\u00e1rv\u00e1r"}}, {"type": "feature", "geometry": {"type": "Point", "coordinates": [21.77627, 50.24417]}, "properties": {"Place_name": "Kolbaszova"}}, {"type": "feature", "geometry": {"type": "Point", "coordinates": [23.1021078, 46.3787007]}, "properties": {"Place_name": "Fels?bisztra"}}, {"type": "feature", "geometry": {"type": "Point", "coordinates": [19.2614256, 47.47544509999999]}, "properties": {"Place_name": "R\u00e1koskereszt\u00far"}}, {"type": "feature", "geometry": {"type": "Point", "coordinates": [14.3122246, 46.6364598]}, "properties": {"Place_name": "Klagenfurt"}}, {"type": "feature", "geometry": {"type": "Point", "coordinates": [19.8227056, 45.2396085]}, "properties": {"Place_name": "\u00dajvid\u00e9k"}}, {"type": "feature", "geometry": {"type": "Point", "coordinates": [21.6254485, 47.5288879]}, "properties": {"Place_name": "Debrecen"}}, {"type": "feature", "geometry": {"type": "Point", "coordinates": [20.3500536, 48.0578657]}, "properties": {"Place_name": "B\u00e9lap\u00e1tfalva"}}, {"type": "feature", "geometry": {"type": "Point", "coordinates": [23.0302124, 48.14634909999999]}, "properties": {"Place_name": "Nagysz\u00f6llos"}}, {"type": "feature", "geometry": {"type": "Point", "coordinates": [18.41852, 46.1591341]}, "properties": {"Place_name": "P\u00e9csv\u00e1rad"}}, {"type": "feature", "geometry": {"type": "Point", "coordinates": [18.8912626, 47.2482238]}, "properties": {"Place_name": "Ercsi"}}, {"type": "feature", "geometry": {"type": "Point", "coordinates": [18.7152845, 47.799212]}, "properties": {"Place_name": "P\u00e1rk\u00e1ny"}}, {"type": "feature", "geometry": {"type": "Point", "coordinates": [18.4602445, 47.39414679999999]}, "properties": {"Place_name": "Cs\u00e1kv\u00e1r"}}, {"type": "feature", "geometry": {"type": "Point", "coordinates": [-63.0500809, 18.0708298]}, "properties": {"Place_name": "St.Martin"}}, {"type": "feature", "geometry": {"type": "Point", "coordinates": [14.5160622, 48.2437859]}, "properties": {"Place_name": "Mauthausen"}}, {"type": "feature", "geometry": {"type": "Point", "coordinates": [13.9529613, 48.1335856]}, "properties": {"Place_name": "Gunskirchen"}}, {"type": "feature", "geometry": {"type": "Point", "coordinates": [17.1115426, 48.11087000000001]}, "properties": {"Place_name": "Engerau"}}, {"type": "feature", "geometry": {"type": "Point", "coordinates": [16.6488128, 47.7209654]}, "properties": {"Place_name": "Fert\u0151r\u00e1kos"}}, {"type": "feature", "geometry": {"type": "Point", "coordinates": [16.44581, 47.166]}, "properties": {"Place_name": "Deutschsch\u00fctzen"}}, {"type": "feature", "geometry": {"type": "Point", "coordinates": [12.2329478, 46.8320276]}, "properties": {"Place_name": "Lanzberg"}}, {"type": "feature", "geometry": {"type": "Point", "coordinates": [10.6427595, 48.0616217]}, "properties": {"Place_name": "T\u00fcrkheim"}}, {"type": "feature", "geometry": {"type": "Point", "coordinates": [10.8567673, 48.08805599999999]}, "properties": {"Place_name": "Kaufering"}}, {"type": "feature", "geometry": {"type": "Point", "coordinates": [12.5229789, 48.2461124]}, "properties": {"Place_name": "Mildorf"}}, {"type": "feature", "geometry": {"type": "Point", "coordinates": [12.991583, 51.557934]}, "properties": {"Place_name": "Torgau"}}, {"type": "feature", "geometry": {"type": "Point", "coordinates": [21.0122287, 52.2296756]}, "properties": {"Place_name": "Vars\u00f3"}}, {"type": "feature", "geometry": {"type": "Point", "coordinates": [12.5229789, 48.2461124]}, "properties": {"Place_name": "M\u00fchldorf"}}, {"type": "feature", "geometry": {"type": "Point", "coordinates": [-85.86544789999999, 41.8516998]}, "properties": {"Place_name": "Friedenswald"}}, {"type": "feature", "geometry": {"type": "Point", "coordinates": [12.464053, 48.26556979999999]}, "properties": {"Place_name": "Mettenheim"}}, {"type": "feature", "geometry": {"type": "Point", "coordinates": [16.5844795, 47.68166189999999]}, "properties": {"Place_name": "Sopron"}}, {"type": "feature", "geometry": {"type": "Point", "coordinates": [16.5292954, 47.7733968]}, "properties": {"Place_name": "Siegendorf"}}, {"type": "feature", "geometry": {"type": "Point", "coordinates": [19.9449799, 50.06465009999999]}, "properties": {"Place_name": "Krakk\u00f3"}}, {"type": "feature", "geometry": {"type": "Point", "coordinates": [8.1486886, 49.3501864]}, "properties": {"Place_name": "Neustadt"}}, {"type": "feature", "geometry": {"type": "Point", "coordinates": [15.71707, 51.80344]}, "properties": {"Place_name": "Neusalz"}}, {"type": "feature", "geometry": {"type": "Point", "coordinates": [9.9579652, 52.154778]}, "properties": {"Place_name": "Hildesheim"}}, {"type": "feature", "geometry": {"type": "Point", "coordinates": [9.663740599999999, 52.384455]}, "properties": {"Place_name": "Ahlem"}}, {"type": "feature", "geometry": {"type": "Point", "coordinates": [14.6345926, 51.50435179999999]}, "properties": {"Place_name": "Weisswasser"}}, {"type": "feature", "geometry": {"type": "Point", "coordinates": [20.9443173, 53.7310848]}, "properties": {"Place_name": "Wappendorf"}}, {"type": "feature", "geometry": {"type": "Point", "coordinates": [11.2492387, 51.0215077]}, "properties": {"Place_name": "Buchenwald"}}, {"type": "feature", "geometry": {"type": "Point", "coordinates": [14.1505577, 50.5110021]}, "properties": {"Place_name": "Theresienstadt"}}, {"type": "feature", "geometry": {"type": "Point", "coordinates": [13.162112, 53.192896]}, "properties": {"Place_name": "Ravensbr\u00fcck"}}, {"type": "feature", "geometry": {"type": "Point", "coordinates": [12.9683034, 50.7113229]}, "properties": {"Place_name": "Gelenau"}}, {"type": "feature", "geometry": {"type": "Point", "coordinates": [13.2408643, 52.7557351]}, "properties": {"Place_name": "Oranienburg"}}, {"type": "feature", "geometry": {"type": "Point", "coordinates": [13.2624754, 52.767081]}, "properties": {"Place_name": " Sachsenhausen"}}, {"type": "feature", "geometry": {"type": "Point", "coordinates": [11.4341515, 48.26315289999999]}, "properties": {"Place_name": "Dachau"}}, {"type": "feature", "geometry": {"type": "Point", "coordinates": [8.6728807, 51.03571669999999]}, "properties": {"Place_name": "Allendorf"}}, {"type": "feature", "geometry": {"type": "Point", "coordinates": [7.216236299999999, 51.4818445]}, "properties": {"Place_name": "Bochum"}}, {"type": "feature", "geometry": {"type": "Point", "coordinates": [14.1505577, 50.5110021]}, "properties": {"Place_name": "Theresiestadt"}}, {"type": "feature", "geometry": {"type": "Point", "coordinates": [18.6713802, 50.29449229999999]}, "properties": {"Place_name": "Gleiwitz"}}, {"type": "feature", "geometry": {"type": "Point", "coordinates": [11.6276237, 52.1205333]}, "properties": {"Place_name": "Magdeburg"}}, {"type": "feature", "geometry": {"type": "Point", "coordinates": [14.84277, 46.8401]}, "properties": {"Place_name": "Wolfsberg"}}, {"type": "feature", "geometry": {"type": "Point", "coordinates": [16.37107, 50.68728]}, "properties": {"Place_name": "W\u00fcstegiersdorf"}}, {"type": "feature", "geometry": {"type": "Point", "coordinates": [11.5913601, 53.374297]}, "properties": {"Place_name": "Neustadtglewe"}}, {"type": "feature", "geometry": {"type": "Point", "coordinates": [12.2990016, 50.6175423]}, "properties": {"Place_name": "Reichenbach"}}, {"type": "feature", "geometry": {"type": "Point", "coordinates": [14.9688465, 50.81692719999999]}, "properties": {"Place_name": "Kratzau"}}, {"type": "feature", "geometry": {"type": "Point", "coordinates": [11.1514876, 52.84965039999999]}, "properties": {"Place_name": "Salzwedel"}}, {"type": "feature", "geometry": {"type": "Point", "coordinates": [14.6345926, 51.50435179999999]}, "properties": {"Place_name": "Weiswasser"}}, {"type": "feature", "geometry": {"type": "Point", "coordinates": [10.2207582, 53.4351259]}, "properties": {"Place_name": "Neuengamme"}}, {"type": "feature", "geometry": {"type": "Point", "coordinates": [9.987170299999999, 53.5488282]}, "properties": {"Place_name": "Hamburg"}}, {"type": "feature", "geometry": {"type": "Point", "coordinates": [11.4444344, 46.93808569999999]}, "properties": {"Place_name": "Brenner"}}, {"type": "feature", "geometry": {"type": "Point", "coordinates": [19.9449799, 50.06465009999999]}, "properties": {"Place_name": "Krako - Placow"}}, {"type": "feature", "geometry": {"type": "Point", "coordinates": [21.6675179, 47.6802292]}, "properties": {"Place_name": "Hajd\u00fahadh\u00e1za"}}, {"type": "feature", "geometry": {"type": "Point", "coordinates": [10.7167046, 52.4159927]}, "properties": {"Place_name": "Fallersleben"}}, {"type": "feature", "geometry": {"type": "Point", "coordinates": [105.318756, 61.52401]}, "properties": {"Place_name": "orosz fogs\u00e1gban volt"}}, {"type": "feature", "geometry": {"type": "Point", "coordinates": [12.4366572, 50.9931202]}, "properties": {"Place_name": "Altenburg"}}, {"type": "feature", "geometry": {"type": "Point", "coordinates": [11.1514876, 52.84965039999999]}, "properties": {"Place_name": " Salzwedel"}}, {"type": "feature", "geometry": {"type": "Point", "coordinates": [-90.3694, 45.12039559999999]}, "properties": {"Place_name": "Freudenthal"}}, {"type": "feature", "geometry": {"type": "Point", "coordinates": [10.2207582, 53.4351259]}, "properties": {"Place_name": "Neuengammei"}}, {"type": "feature", "geometry": {"type": "Point", "coordinates": [16.0846672, 51.66358520000001]}, "properties": {"Place_name": "Glogau"}}, {"type": "feature", "geometry": {"type": "Point", "coordinates": [16.5095478, 47.7104914]}, "properties": {"Place_name": "Schattendorf"}}, {"type": "feature", "geometry": {"type": "Point", "coordinates": [11.7470481, 52.0091435]}, "properties": {"Place_name": "Sch\u00f6nebeck"}}, {"type": "feature", "geometry": {"type": "Point", "coordinates": [15.5657397, 51.2658553]}, "properties": {"Place_name": "Bunzlau"}}, {"type": "feature", "geometry": {"type": "Point", "coordinates": [5.3220544, 60.39126279999999]}, "properties": {"Place_name": "Bergen"}}, {"type": "feature", "geometry": {"type": "Point", "coordinates": [14.1505577, 50.5110021]}, "properties": {"Place_name": "Theresienstedt"}}, {"type": "feature", "geometry": {"type": "Point", "coordinates": [14.9688941, 51.1524553]}, "properties": {"Place_name": "G\u00f6rlitz"}}, {"type": "feature", "geometry": {"type": "Point", "coordinates": [9.9054377, 53.6121226]}, "properties": {"Place_name": "Edelstadt"}}, {"type": "feature", "geometry": {"type": "Point", "coordinates": [9.576863, 53.50954609999999]}, "properties": {"Place_name": "Horneburg"}}, {"type": "feature", "geometry": {"type": "Point", "coordinates": [21.620621, 57.4088355]}, "properties": {"Place_name": "Windau"}}, {"type": "feature", "geometry": {"type": "Point", "coordinates": [18.40746, 52.89463]}, "properties": {"Place_name": "Argenau"}}, {"type": "feature", "geometry": {"type": "Point", "coordinates": [12.3484433, 49.732903]}, "properties": {"Place_name": "Flossenburg"}}, {"type": "feature", "geometry": {"type": "Point", "coordinates": [9.0095706, 48.7960447]}, "properties": {"Place_name": "Leonburg"}}, {"type": "feature", "geometry": {"type": "Point", "coordinates": [10.8718015, 48.0464144]}, "properties": {"Place_name": "Landsberg"}}, {"type": "feature", "geometry": {"type": "Point", "coordinates": [10.633333, 51.75]}, "properties": {"Place_name": "Rode am Harz"}}, {"type": "feature", "geometry": {"type": "Point", "coordinates": [10.2586193, 52.3873577]}, "properties": {"Place_name": "Edemissen"}}, {"type": "feature", "geometry": {"type": "Point", "coordinates": [16.23318, 47.80278999999999]}, "properties": {"Place_name": "Wienerneustadt"}}, {"type": "feature", "geometry": {"type": "Point", "coordinates": [15.9090923, 50.5653838]}, "properties": {"Place_name": "Trautenau"}}, {"type": "feature", "geometry": {"type": "Point", "coordinates": [9.719786599999999, 51.1982109]}, "properties": {"Place_name": "Hessischilichtenau"}}, {"type": "feature", "geometry": {"type": "Point", "coordinates": [12.3730747, 51.3396955]}, "properties": {"Place_name": "Leipzig"}}, {"type": "feature", "geometry": {"type": "Point", "coordinates": [11.0766654, 49.4521018]}, "properties": {"Place_name": "N\u00fcrnberg"}}, {"type": "feature", "geometry": {"type": "Point", "coordinates": [12.1615091, 50.7486249]}, "properties": {"Place_name": "Berga-Elster"}}, {"type": "feature", "geometry": {"type": "Point", "coordinates": [7.0838411, 51.5187651]}, "properties": {"Place_name": "Gelsenkirchen"}}, {"type": "feature", "geometry": {"type": "Point", "coordinates": [7.0115552, 51.4556432]}, "properties": {"Place_name": "Essen"}}, {"type": "feature", "geometry": {"type": "Point", "coordinates": [10.5267696, 52.2688736]}, "properties": {"Place_name": "Braunschweig"}}, {"type": "feature", "geometry": {"type": "Point", "coordinates": [12.42169, 53.4784568]}, "properties": {"Place_name": "Malchow"}}, {"type": "feature", "geometry": {"type": "Point", "coordinates": [8.3406481, 51.6712278]}, "properties": {"Place_name": "Lippstadt"}}, {"type": "feature", "geometry": {"type": "Point", "coordinates": [11.7518104, 51.1423105]}, "properties": {"Place_name": "Pforta"}}, {"type": "feature", "geometry": {"type": "Point", "coordinates": [9.6845353, 49.3049846]}, "properties": {"Place_name": "Belsenberg"}}, {"type": "feature", "geometry": {"type": "Point", "coordinates": [15.6050062, 50.6170886]}, "properties": {"Place_name": "Hohenelbe"}}, {"type": "feature", "geometry": {"type": "Point", "coordinates": [16.0237177, 50.7852076]}, "properties": {"Place_name": "Landeshut"}}, {"type": "feature", "geometry": {"type": "Point", "coordinates": [10.7341024, 50.8274129]}, "properties": {"Place_name": "Ohrdruf"}}, {"type": "feature", "geometry": {"type": "Point", "coordinates": [14.2767893, 52.3401613]}, "properties": {"Place_name": "Briesen"}}, {"type": "feature", "geometry": {"type": "Point", "coordinates": [8.917053, 48.3128279]}, "properties": {"Place_name": "Bisingen"}}, {"type": "feature", "geometry": {"type": "Point", "coordinates": [13.431324, 51.59602899999999]}, "properties": {"Place_name": "Tr\u00f6bitz"}}, {"type": "feature", "geometry": {"type": "Point", "coordinates": [10.2207582, 53.4351259]}, "properties": {"Place_name": "Neuengammee"}}, {"type": "feature", "geometry": {"type": "Point", "coordinates": [15.63817, 48.20353]}, "properties": {"Place_name": "St.P\u00f6lten"}}, {"type": "feature", "geometry": {"type": "Point", "coordinates": [7.2995592, 51.0484145]}, "properties": {"Place_name": "Erlenbusch"}}, {"type": "feature", "geometry": {"type": "Point", "coordinates": [7.0942016, 51.1117111]}, "properties": {"Place_name": "Krahwinkel"}}, {"type": "feature", "geometry": {"type": "Point", "coordinates": [7.9498017, 48.473451]}, "properties": {"Place_name": "Offenbrug"}}, {"type": "feature", "geometry": {"type": "Point", "coordinates": [7.9498017, 48.473451]}, "properties": {"Place_name": "Offenburg"}}, {"type": "feature", "geometry": {"type": "Point", "coordinates": [13.2002964, 52.5351876]}, "properties": {"Place_name": "Spandau"}}, {"type": "feature", "geometry": {"type": "Point", "coordinates": [12.3280093, 47.5209549]}, "properties": {"Place_name": "Mahlhof"}}, {"type": "feature", "geometry": {"type": "Point", "coordinates": [11.2889245, 47.9463712]}, "properties": {"Place_name": "Feldapfing"}}, {"type": "feature", "geometry": {"type": "Point", "coordinates": [10.3630189, 48.9778281]}, "properties": {"Place_name": "Tannhausen"}}, {"type": "feature", "geometry": {"type": "Point", "coordinates": [9.1876263, 49.8967222]}, "properties": {"Place_name": "D\u00f6rnau"}}, {"type": "feature", "geometry": {"type": "Point", "coordinates": [10.5719357, 49.3004246]}, "properties": {"Place_name": "Ansbach"}}, {"type": "feature", "geometry": {"type": "Point", "coordinates": [10.988667, 49.4771169]}, "properties": {"Place_name": "F\u00fcrth"}}, {"type": "feature", "geometry": {"type": "Point", "coordinates": [10.8542007, 52.6592296]}, "properties": {"Place_name": "Plastau"}}, {"type": "feature", "geometry": {"type": "Point", "coordinates": [17.0385376, 51.1078852]}, "properties": {"Place_name": "Breslau"}}, {"type": "feature", "geometry": {"type": "Point", "coordinates": [16.3709696, 50.6613948]}, "properties": {"Place_name": "Oberw\u00fcstegiersdorf"}}, {"type": "feature", "geometry": {"type": "Point", "coordinates": [11.5913601, 53.374297]}, "properties": {"Place_name": "Glewe"}}, {"type": "feature", "geometry": {"type": "Point", "coordinates": [11.1709899, 50.3601821]}, "properties": {"Place_name": "Sonneberg"}}, {"type": "feature", "geometry": {"type": "Point", "coordinates": [14.5160622, 48.2437859]}, "properties": {"Place_name": " Mauthausen"}}, {"type": "feature", "geometry": {"type": "Point", "coordinates": [15.34996, 48.22647]}, "properties": {"Place_name": "Melk"}}, {"type": "feature", "geometry": {"type": "Point", "coordinates": [13.779037, 47.8071383]}, "properties": {"Place_name": "Ebensee"}}, {"type": "feature", "geometry": {"type": "Point", "coordinates": [13.04432, 48.25573]}, "properties": {"Place_name": "Brahnau - Bormberg"}}, {"type": "feature", "geometry": {"type": "Point", "coordinates": [79.9220686, 28.1058184]}, "properties": {"Place_name": "Bor"}}, {"type": "feature", "geometry": {"type": "Point", "coordinates": [14.7269899, 50.9527589]}, "properties": {"Place_name": "Nieder\u00f6derwitz"}}, {"type": "feature", "geometry": {"type": "Point", "coordinates": [12.4295953, 53.6126505]}, "properties": {"Place_name": "Merklenberg"}}, {"type": "feature", "geometry": {"type": "Point", "coordinates": [13.7372621, 51.0504088]}, "properties": {"Place_name": "Dresden"}}, {"type": "feature", "geometry": {"type": "Point", "coordinates": [17.0355841, 51.1458649]}, "properties": {"Place_name": "Hundsfeld"}}, {"type": "feature", "geometry": {"type": "Point", "coordinates": [10.4259498, 54.16133019999999]}, "properties": {"Place_name": "Pl\u0151n"}}, {"type": "feature", "geometry": {"type": "Point", "coordinates": [10.2905255, 52.8510882]}, "properties": {"Place_name": "Unterl\u00fcss"}}, {"type": "feature", "geometry": {"type": "Point", "coordinates": [36.1947023, 51.7482395]}, "properties": {"Place_name": "Kursk"}}, {"type": "feature", "geometry": {"type": "Point", "coordinates": [16.740935, 47.6253847]}, "properties": {"Place_name": "Hidegs\u00e9g"}}, {"type": "feature", "geometry": {"type": "Point", "coordinates": [17.3096772, 51.04747039999999]}, "properties": {"Place_name": "F\u00fcnfteichen"}}, {"type": "feature", "geometry": {"type": "Point", "coordinates": [13.2779269, 53.5678292]}, "properties": {"Place_name": "Neubrandenburg"}}, {"type": "feature", "geometry": {"type": "Point", "coordinates": [12.1016236, 49.0134297]}, "properties": {"Place_name": "Regensburg"}}, {"type": "feature", "geometry": {"type": "Point", "coordinates": [13.3295421, 48.7165463]}, "properties": {"Place_name": "F\u00fcrstenstein"}}, {"type": "feature", "geometry": {"type": "Point", "coordinates": [8.9402185, 52.2253083]}, "properties": {"Place_name": "Westfalica"}}, {"type": "feature", "geometry": {"type": "Point", "coordinates": [16.6451629, 47.6385359]}, "properties": {"Place_name": "K\u00f3ph\u00e1za"}}, {"type": "feature", "geometry": {"type": "Point", "coordinates": [11.3251988, 49.3740592]}, "properties": {"Place_name": "Gr\u00fcnsberg"}}, {"type": "feature", "geometry": {"type": "Point", "coordinates": [14.695565, 51.9514863]}, "properties": {"Place_name": "Guben"}}, {"type": "feature", "geometry": {"type": "Point", "coordinates": [16.6466177, 47.8944455]}, "properties": {"Place_name": "Donnerskirchen"}}, {"type": "feature", "geometry": {"type": "Point", "coordinates": [17.6503974, 47.6874569]}, "properties": {"Place_name": "Gy\u0151r"}}, {"type": "feature", "geometry": {"type": "Point", "coordinates": [16.4221552, 47.2416356]}, "properties": {"Place_name": "Schandorf"}}, {"type": "feature", "geometry": {"type": "Point", "coordinates": [10.8942537, 50.8094664]}, "properties": {"Place_name": "Espenfeld"}}, {"type": "feature", "geometry": {"type": "Point", "coordinates": [11.430538, 49.50777120000001]}, "properties": {"Place_name": "Hersbruck"}}, {"type": "feature", "geometry": {"type": "Point", "coordinates": [-118.1803313, 34.1405044]}, "properties": {"Place_name": "Friedenthal"}}, {"type": "feature", "geometry": {"type": "Point", "coordinates": [8.6821267, 50.1109221]}, "properties": {"Place_name": "Frankfurt am Main"}}, {"type": "feature", "geometry": {"type": "Point", "coordinates": [15.7494319, 44.703121]}, "properties": {"Place_name": "Bjelopole"}}, {"type": "feature", "geometry": {"type": "Point", "coordinates": [36.1947023, 51.7482395]}, "properties": {"Place_name": "Kurszk"}}, {"type": "feature", "geometry": {"type": "Point", "coordinates": [11.430538, 49.50777120000001]}, "properties": {"Place_name": "Herzbruck"}}, {"type": "feature", "geometry": {"type": "Point", "coordinates": [16.5397127, 47.3859176]}, "properties": {"Place_name": "K\u0151szeg"}}, {"type": "feature", "geometry": {"type": "Point", "coordinates": [9.8294482, 48.62151619999999]}, "properties": {"Place_name": "Geistlingen"}}, {"type": "feature", "geometry": {"type": "Point", "coordinates": [11.5819806, 48.1351253]}, "properties": {"Place_name": "M\u00fcnchen"}}, {"type": "feature", "geometry": {"type": "Point", "coordinates": [11.6779694, 52.3022253]}, "properties": {"Place_name": "Zielitz"}}, {"type": "feature", "geometry": {"type": "Point", "coordinates": [1.8439221, 42.1012595]}, "properties": {"Place_name": "Berga"}}, {"type": "feature", "geometry": {"type": "Point", "coordinates": [14.2986998, 51.9829088]}, "properties": {"Place_name": "Lieberose"}}, {"type": "feature", "geometry": {"type": "Point", "coordinates": [11.5003787, 53.401836]}, "properties": {"Place_name": "W\u00f6bbelin"}}, {"type": "feature", "geometry": {"type": "Point", "coordinates": [10.2535104, 51.5096571]}, "properties": {"Place_name": "Duderstadt"}}, {"type": "feature", "geometry": {"type": "Point", "coordinates": [14.1505577, 50.5110021]}, "properties": {"Place_name": "Therisienstadt"}}, {"type": "feature", "geometry": {"type": "Point", "coordinates": [19.0982625, 47.5157574]}, "properties": {"Place_name": "Budapest - Columbus utcai t\u00e1bor"}}, {"type": "feature", "geometry": {"type": "Point", "coordinates": [-71.0588801, 42.3600825]}, "properties": {"Place_name": "San Bosten"}}, {"type": "feature", "geometry": {"type": "Point", "coordinates": [15.9106397, 50.663293]}, "properties": {"Place_name": "Schatzlar"}}, {"type": "feature", "geometry": {"type": "Point", "coordinates": [16.6234422, 47.6016309]}, "properties": {"Place_name": "Deutschkreuz"}}, {"type": "feature", "geometry": {"type": "Point", "coordinates": [12.7944283, 51.0506956]}, "properties": {"Place_name": "Roshlitz"}}, {"type": "feature", "geometry": {"type": "Point", "coordinates": [24.7409961, 47.3645794]}, "properties": {"Place_name": "Szentj\u00f3zsef"}}, {"type": "feature", "geometry": {"type": "Point", "coordinates": [28.8028968, 51.3268314]}, "properties": {"Place_name": "Ovrucs"}}, {"type": "feature", "geometry": {"type": "Point", "coordinates": [24.1056221, 56.9676941]}, "properties": {"Place_name": "Riga"}}, {"type": "feature", "geometry": {"type": "Point", "coordinates": [16.664117, 47.6494389]}, "properties": {"Place_name": "Balf"}}, {"type": "feature", "geometry": {"type": "Point", "coordinates": [12.3664574, 51.2748681]}, "properties": {"Place_name": "Markkleeberg"}}, {"type": "feature", "geometry": {"type": "Point", "coordinates": [7.906418, 48.92601200000001]}, "properties": {"Place_name": "Hochweile"}}, {"type": "feature", "geometry": {"type": "Point", "coordinates": [10.2207582, 53.4351259]}, "properties": {"Place_name": "Neuengammeen"}}, {"type": "feature", "geometry": {"type": "Point", "coordinates": [11.4969238, 53.3244914]}, "properties": {"Place_name": "Ludwigslust"}}, {"type": "feature", "geometry": {"type": "Point", "coordinates": [12.6252581, 50.1922414]}, "properties": {"Place_name": "Zwodau"}}, {"type": "feature", "geometry": {"type": "Point", "coordinates": [11.1188764, 51.1594582]}, "properties": {"Place_name": "Sommerda"}}, {"type": "feature", "geometry": {"type": "Point", "coordinates": [12.7436557, 51.36988059999999]}, "properties": {"Place_name": "Wurzen"}}, {"type": "feature", "geometry": {"type": "Point", "coordinates": [11.4619062, 51.7591297]}, "properties": {"Place_name": "Aschersleben"}}, {"type": "feature", "geometry": {"type": "Point", "coordinates": [13.3814605, 52.5712685]}, "properties": {"Place_name": "Sch\u00f6nholz (Berlin - Reinickensdorf)"}}, {"type": "feature", "geometry": {"type": "Point", "coordinates": [11.8165537, 50.4074967]}, "properties": {"Place_name": "Hirschberg"}}, {"type": "feature", "geometry": {"type": "Point", "coordinates": [8.958271800000002, 50.5926747]}, "properties": {"Place_name": "Gr\u00fcnberg"}}, {"type": "feature", "geometry": {"type": "Point", "coordinates": [16.4406798, 47.3047435]}, "properties": {"Place_name": "Rechnitz"}}, {"type": "feature", "geometry": {"type": "Point", "coordinates": [9.0095706, 48.7960447]}, "properties": {"Place_name": "Leonberg"}}, {"type": "feature", "geometry": {"type": "Point", "coordinates": [19.0703906, 47.490544]}, "properties": {"Place_name": "R\u00f6kk Szil\u00e1rd utca 26. intern\u00e1l\u00f3t\u00e1bor"}}, {"type": "feature", "geometry": {"type": "Point", "coordinates": [8.4649434, 47.4421954]}, "properties": {"Place_name": "Regensdorf"}}, {"type": "feature", "geometry": {"type": "Point", "coordinates": [12.1402795, 51.0443266]}, "properties": {"Place_name": "Zeitz"}}, {"type": "feature", "geometry": {"type": "Point", "coordinates": [16.5820423, 50.7116152]}, "properties": {"Place_name": "Peterswaldau"}}, {"type": "feature", "geometry": {"type": "Point", "coordinates": [10.5522144, 51.88668879999999]}, "properties": {"Place_name": "Harzburg"}}, {"type": "feature", "geometry": {"type": "Point", "coordinates": [16.2979368, 47.8315838]}, "properties": {"Place_name": "Lichtenw\u00f6rth"}}, {"type": "feature", "geometry": {"type": "Point", "coordinates": [18.6361726, 54.2621505]}, "properties": {"Place_name": "Praust"}}, {"type": "feature", "geometry": {"type": "Point", "coordinates": [8.2159655, 47.4789604]}, "properties": {"Place_name": "Windisch"}}, {"type": "feature", "geometry": {"type": "Point", "coordinates": [16.0780644, 46.8829901]}, "properties": {"Place_name": "Minihof"}}, {"type": "feature", "geometry": {"type": "Point", "coordinates": [9.576863, 53.50954609999999]}, "properties": {"Place_name": "Horneberg"}}, {"type": "feature", "geometry": {"type": "Point", "coordinates": [14.98511, 48.77156]}, "properties": {"Place_name": "Gm\u00fcnd"}}, {"type": "feature", "geometry": {"type": "Point", "coordinates": [-77.3003744, 38.8311655]}, "properties": {"Place_name": "Krasnow"}}, {"type": "feature", "geometry": {"type": "Point", "coordinates": [8.9604433, 48.2151635]}, "properties": {"Place_name": "Lautlingen"}}, {"type": "feature", "geometry": {"type": "Point", "coordinates": [10.89779, 48.3705449]}, "properties": {"Place_name": "Augsburg"}}, {"type": "feature", "geometry": {"type": "Point", "coordinates": [8.747097199999999, 48.1796066]}, "properties": {"Place_name": "Sch\u00f6rzingen"}}, {"type": "feature", "geometry": {"type": "Point", "coordinates": [13.7030663, 52.8871121]}, "properties": {"Place_name": "Webellin"}}, {"type": "feature", "geometry": {"type": "Point", "coordinates": [2.314416, 50.979778]}, "properties": {"Place_name": "Malhof"}}, {"type": "feature", "geometry": {"type": "Point", "coordinates": [7.842104299999999, 47.9990077]}, "properties": {"Place_name": "Freiburg"}}, {"type": "feature", "geometry": {"type": "Point", "coordinates": [-89.8125146, 35.0854161]}, "properties": {"Place_name": "Olec"}}, {"type": "feature", "geometry": {"type": "Point", "coordinates": [10.7341024, 50.8274129]}, "properties": {"Place_name": " Ohrdruf"}}, {"type": "feature", "geometry": {"type": "Point", "coordinates": [10.7931122, 51.4983551]}, "properties": {"Place_name": "Nordhausen"}}, {"type": "feature", "geometry": {"type": "Point", "coordinates": [11.2640301, 47.4413018]}, "properties": {"Place_name": "Mittenwald"}}, {"type": "feature", "geometry": {"type": "Point", "coordinates": [10.7206776, 53.3802724]}, "properties": {"Place_name": "Bolzenburg"}}, {"type": "feature", "geometry": {"type": "Point", "coordinates": [16.528384, 47.6790919]}, "properties": {"Place_name": "Sopronb\u00e1nfalva"}}, {"type": "feature", "geometry": {"type": "Point", "coordinates": [9.5481222, 51.282066]}, "properties": {"Place_name": "Mehlhof"}}, {"type": "feature", "geometry": {"type": "Point", "coordinates": [11.5237059, 50.0937884]}, "properties": {"Place_name": "Mehltauer"}}, {"type": "feature", "geometry": {"type": "Point", "coordinates": [14.9688941, 51.1524553]}, "properties": {"Place_name": " G\u00f6rlitz"}}, {"type": "feature", "geometry": {"type": "Point", "coordinates": [12.2990016, 50.6175423]}, "properties": {"Place_name": "Reichenbanch"}}, {"type": "feature", "geometry": {"type": "Point", "coordinates": [13.404954, 52.52000659999999]}, "properties": {"Place_name": "Berlin"}}, {"type": "feature", "geometry": {"type": "Point", "coordinates": [13.379107, 52.575141]}, "properties": {"Place_name": "Sch\u00f6nholz"}}, {"type": "feature", "geometry": {"type": "Point", "coordinates": [14.1505577, 50.5110021]}, "properties": {"Place_name": "Theresin"}}, {"type": "feature", "geometry": {"type": "Point", "coordinates": [12.495054, 51.3798014]}, "properties": {"Place_name": "Taucha"}}, {"type": "feature", "geometry": {"type": "Point", "coordinates": [22.5684463, 51.2464536]}, "properties": {"Place_name": "Lublin"}}, {"type": "feature", "geometry": {"type": "Point", "coordinates": [13.2805353, 52.5790422]}, "properties": {"Place_name": "Reinickendorf"}}, {"type": "feature", "geometry": {"type": "Point", "coordinates": [13.1697719, 52.7493536]}, "properties": {"Place_name": "Germendorf"}}, {"type": "feature", "geometry": {"type": "Point", "coordinates": [13.2648441, 52.5367916]}, "properties": {"Place_name": "Siemensstadt"}}, {"type": "feature", "geometry": {"type": "Point", "coordinates": [37.6053, 48.8532]}, "properties": {"Place_name": "Szlavianszk"}}, {"type": "feature", "geometry": {"type": "Point", "coordinates": [5.3220544, 60.39126279999999]}, "properties": {"Place_name": "Bergen Zelle"}}, {"type": "feature", "geometry": {"type": "Point", "coordinates": [14.1505577, 50.5110021]}, "properties": {"Place_name": "Thereienstadt"}}, {"type": "feature", "geometry": {"type": "Point", "coordinates": [14.4847455, 52.5060806]}, "properties": {"Place_name": "Sachsendorf"}}, {"type": "feature", "geometry": {"type": "Point", "coordinates": [12.2176361, 51.05968679999999]}, "properties": {"Place_name": "Rehmsdorf"}}, {"type": "feature", "geometry": {"type": "Point", "coordinates": [11.1877742, 47.3300017]}, "properties": {"Place_name": "Seefeld"}}, {"type": "feature", "geometry": {"type": "Point", "coordinates": [-111.259628, 54.238802]}, "properties": {"Place_name": "Thereien"}}, {"type": "feature", "geometry": {"type": "Point", "coordinates": [16.6361849, 48.3162908]}, "properties": {"Place_name": "Strasshof"}}, {"type": "feature", "geometry": {"type": "Point", "coordinates": [8.5627138, 47.5732503]}, "properties": {"Place_name": "Buchberg"}}, {"type": "feature", "geometry": {"type": "Point", "coordinates": [13.4319466, 48.5667364]}, "properties": {"Place_name": "Passau"}}, {"type": "feature", "geometry": {"type": "Point", "coordinates": [11.0788189, 49.45100679999999]}, "properties": {"Place_name": "Lorenzkirche"}}, {"type": "feature", "geometry": {"type": "Point", "coordinates": [14.8883337, 47.5424344]}, "properties": {"Place_name": "Eisenetz"}}, {"type": "feature", "geometry": {"type": "Point", "coordinates": [17.0719763, 54.4279536]}, "properties": {"Place_name": "Plassow"}}, {"type": "feature", "geometry": {"type": "Point", "coordinates": [9.192800799999999, 48.50394860000001]}, "properties": {"Place_name": "Marktleben"}}, {"type": "feature", "geometry": {"type": "Point", "coordinates": [17.5783297, 49.3333095]}, "properties": {"Place_name": "Holleschau"}}, {"type": "feature", "geometry": {"type": "Point", "coordinates": [16.6068371, 49.1950602]}, "properties": {"Place_name": "Br\u00fcnn"}}, {"type": "feature", "geometry": {"type": "Point", "coordinates": [11.8677929, 47.3132869]}, "properties": {"Place_name": "Zillertbal"}}, {"type": "feature", "geometry": {"type": "Point", "coordinates": [10.7931122, 51.4983551]}, "properties": {"Place_name": "Nordbausen"}}, {"type": "feature", "geometry": {"type": "Point", "coordinates": [11.97456, 57.70887]}, "properties": {"Place_name": "G\u00f6ttenburg"}}, {"type": "feature", "geometry": {"type": "Point", "coordinates": [19.2739314, 50.204987]}, "properties": {"Place_name": "Javozno"}}, {"type": "feature", "geometry": {"type": "Point", "coordinates": [18.2787817, 50.361829]}, "properties": {"Place_name": "Blechhammer"}}, {"type": "feature", "geometry": {"type": "Point", "coordinates": [10.7815412, 50.7800693]}, "properties": {"Place_name": "Kravinkel"}}, {"type": "feature", "geometry": {"type": "Point", "coordinates": [12.5994076, 50.8769304]}, "properties": {"Place_name": "Waldenburg"}}, {"type": "feature", "geometry": {"type": "Point", "coordinates": [15.439504, 47.070714]}, "properties": {"Place_name": "Graz"}}, {"type": "feature", "geometry": {"type": "Point", "coordinates": [16.4938597, 47.264515]}, "properties": {"Place_name": "Bucsu"}}, {"type": "feature", "geometry": {"type": "Point", "coordinates": [12.2826551, 51.7124017]}, "properties": {"Place_name": "Raguhn"}}, {"type": "feature", "geometry": {"type": "Point", "coordinates": [12.2990016, 50.6175423]}, "properties": {"Place_name": " Reichenbach"}}, {"type": "feature", "geometry": {"type": "Point", "coordinates": [11.7190245, 50.2358872]}, "properties": {"Place_name": "Helmbrechts"}}, {"type": "feature", "geometry": {"type": "Point", "coordinates": [14.0000005, 49.01091]}, "properties": {"Place_name": "Prachatjice"}}, {"type": "feature", "geometry": {"type": "Point", "coordinates": [12.3664574, 51.2748681]}, "properties": {"Place_name": "Markleberg"}}, {"type": "feature", "geometry": {"type": "Point", "coordinates": [13.6493707, 51.1115648]}, "properties": {"Place_name": "Radebeul"}}, {"type": "feature", "geometry": {"type": "Point", "coordinates": [10.4222281, 51.375794]}, "properties": {"Place_name": "Niederorscbell"}}, {"type": "feature", "geometry": {"type": "Point", "coordinates": [10.9880794, 51.8554956]}, "properties": {"Place_name": "Langenstein"}}, {"type": "feature", "geometry": {"type": "Point", "coordinates": [16.35, 48.26666669999999]}, "properties": {"Place_name": "Nussberg"}}, {"type": "feature", "geometry": {"type": "Point", "coordinates": [9.8294482, 48.62151619999999]}, "properties": {"Place_name": "Geislingen"}}, {"type": "feature", "geometry": {"type": "Point", "coordinates": [13.04432, 48.25573]}, "properties": {"Place_name": "Branau"}}, {"type": "feature", "geometry": {"type": "Point", "coordinates": [16.1283187, 48.0560359]}, "properties": {"Place_name": "Heiligenkreuz"}}, {"type": "feature", "geometry": {"type": "Point", "coordinates": [12.2835396, 54.1307195]}, "properties": {"Place_name": "Poppendorf"}}, {"type": "feature", "geometry": {"type": "Point", "coordinates": [18.0084378, 53.12348040000001]}, "properties": {"Place_name": "Bromberg"}}, {"type": "feature", "geometry": {"type": "Point", "coordinates": [12.7944283, 51.0506956]}, "properties": {"Place_name": "Rochlitz"}}, {"type": "feature", "geometry": {"type": "Point", "coordinates": [10.4222281, 51.375794]}, "properties": {"Place_name": "Nieder - Orschl"}}, {"type": "feature", "geometry": {"type": "Point", "coordinates": [13.2408643, 52.7557351]}, "properties": {"Place_name": " Oranienburg"}}, {"type": "feature", "geometry": {"type": "Point", "coordinates": [12.6831426, 52.62419010000001]}, "properties": {"Place_name": "Retzow"}}, {"type": "feature", "geometry": {"type": "Point", "coordinates": [13.04432, 48.25573]}, "properties": {"Place_name": "Brannau"}}]}