{"type": "FeatureCollection", "features": [{"type": "feature", "geometry": {"type": "Point", "coordinates": [47.497912, 19.040235]}, "properties": {"Place_name": "Budapest"}}, {"type": "feature", "geometry": {"type": "Point", "coordinates": [48.54285669999999, 22.9948916]}, "properties": {"Place_name": "Szolyva"}}, {"type": "feature", "geometry": {"type": "Point", "coordinates": [47.92414040000001, 19.7059592]}, "properties": {"Place_name": "P\u00e1szt\u00f3"}}, {"type": "feature", "geometry": {"type": "Point", "coordinates": [48.4493055, 22.7117106]}, "properties": {"Place_name": "Munk\u00e1cs"}}, {"type": "feature", "geometry": {"type": "Point", "coordinates": [48.3117809, 23.041894]}, "properties": {"Place_name": "Ilosva"}}, {"type": "feature", "geometry": {"type": "Point", "coordinates": [48.1971868, 22.6370954]}, "properties": {"Place_name": "Beregsz\u00e1sz"}}, {"type": "feature", "geometry": {"type": "Point", "coordinates": [48.17346329999999, 23.2972476]}, "properties": {"Place_name": "Huszt"}}, {"type": "feature", "geometry": {"type": "Point", "coordinates": [22.3058128, 73.1655392]}, "properties": {"Place_name": "T\u00e9cso"}}, {"type": "feature", "geometry": {"type": "Point", "coordinates": [47.9557094, 23.8775791]}, "properties": {"Place_name": "Aknaszlatina"}}, {"type": "feature", "geometry": {"type": "Point", "coordinates": [48.4227901, 20.3222421]}, "properties": {"Place_name": "Tornalja"}}, {"type": "feature", "geometry": {"type": "Point", "coordinates": [48.74576889999999, 22.1794779]}, "properties": {"Place_name": "Szobr\u00e1nc"}}, {"type": "feature", "geometry": {"type": "Point", "coordinates": [45.5061204, 25.5065929]}, "properties": {"Place_name": "Hidegpatak"}}, {"type": "feature", "geometry": {"type": "Point", "coordinates": [48.2398903, 23.336521]}, "properties": {"Place_name": "Keselymezo"}}, {"type": "feature", "geometry": {"type": "Point", "coordinates": [48.1026673, 20.9654647]}, "properties": {"Place_name": "Gesztely"}}, {"type": "feature", "geometry": {"type": "Point", "coordinates": [47.4457289, 19.1430149]}, "properties": {"Place_name": "Kispest"}}, {"type": "feature", "geometry": {"type": "Point", "coordinates": [48.6208, 22.287883]}, "properties": {"Place_name": "Ungv\u00e1r"}}, {"type": "feature", "geometry": {"type": "Point", "coordinates": [46.5281229, 18.9840376]}, "properties": {"Place_name": "Kalocsa"}}, {"type": "feature", "geometry": {"type": "Point", "coordinates": [48.5412136, 22.5089067]}, "properties": {"Place_name": "Szerednye"}}, {"type": "feature", "geometry": {"type": "Point", "coordinates": [46.654789, 20.2637492]}, "properties": {"Place_name": "Szentes"}}, {"type": "feature", "geometry": {"type": "Point", "coordinates": [47.56489149999999, 19.0913148]}, "properties": {"Place_name": "\u00dajpest"}}, {"type": "feature", "geometry": {"type": "Point", "coordinates": [47.18602620000001, 18.4221358]}, "properties": {"Place_name": "Sz\u00e9kesfeh\u00e9rv\u00e1r"}}, {"type": "feature", "geometry": {"type": "Point", "coordinates": [47.5108652, 19.1746722]}, "properties": {"Place_name": "Sashalom"}}, {"type": "feature", "geometry": {"type": "Point", "coordinates": [43.787361, -0.6442249999999999]}, "properties": {"Place_name": "B\u00e1rth\u00e1za"}}, {"type": "feature", "geometry": {"type": "Point", "coordinates": [47.4433711, 19.1090853]}, "properties": {"Place_name": "Pestszenterzs\u00e9bet"}}, {"type": "feature", "geometry": {"type": "Point", "coordinates": [48.5826327, 22.2740915]}, "properties": {"Place_name": "Keterg\u00e9ny"}}, {"type": "feature", "geometry": {"type": "Point", "coordinates": [48.6208, 22.287883]}, "properties": {"Place_name": "Felsoverecke \u00e9s Ungv\u00e1r"}}, {"type": "feature", "geometry": {"type": "Point", "coordinates": [48.2677393, 22.8612352]}, "properties": {"Place_name": "Felsoremete"}}, {"type": "feature", "geometry": {"type": "Point", "coordinates": [47.561541, 19.1319344]}, "properties": {"Place_name": "R\u00e1kospalota"}}, {"type": "feature", "geometry": {"type": "Point", "coordinates": [41.005341, 71.236153]}, "properties": {"Place_name": "Chuszt"}}, {"type": "feature", "geometry": {"type": "Point", "coordinates": [46.5831195, 17.6500124]}, "properties": {"Place_name": "Somogyv\u00e1r"}}, {"type": "feature", "geometry": {"type": "Point", "coordinates": [47.04650050000001, 21.9189438]}, "properties": {"Place_name": "Nagyv\u00e1rad"}}, {"type": "feature", "geometry": {"type": "Point", "coordinates": [47.9881643, 18.1571098]}, "properties": {"Place_name": "\u00c9rsek\u00fajv\u00e1r"}}, {"type": "feature", "geometry": {"type": "Point", "coordinates": [47.8016702, 22.8575926]}, "properties": {"Place_name": "Szatm\u00e1rn\u00e9meti"}}, {"type": "feature", "geometry": {"type": "Point", "coordinates": [47.7794585, 23.9411193]}, "properties": {"Place_name": "Aknasugatag"}}, {"type": "feature", "geometry": {"type": "Point", "coordinates": [48.186344, 22.7710858]}, "properties": {"Place_name": "Kov\u00e1sz\u00f3"}}, {"type": "feature", "geometry": {"type": "Point", "coordinates": [47.5843759, 19.0585821]}, "properties": {"Place_name": "Csillaghegy"}}, {"type": "feature", "geometry": {"type": "Point", "coordinates": [48.1034775, 20.7784384]}, "properties": {"Place_name": "Miskolc"}}, {"type": "feature", "geometry": {"type": "Point", "coordinates": [47.4332879, 19.119317]}, "properties": {"Place_name": "Pesterzs\u00e9bet"}}, {"type": "feature", "geometry": {"type": "Point", "coordinates": [47.2921849, 24.3973258]}, "properties": {"Place_name": "Nasz\u00f3d"}}, {"type": "feature", "geometry": {"type": "Point", "coordinates": [48.7114913, 23.1850055]}, "properties": {"Place_name": "Voloc"}}, {"type": "feature", "geometry": {"type": "Point", "coordinates": [48.1055366, 22.5316392]}, "properties": {"Place_name": "Tarpa"}}, {"type": "feature", "geometry": {"type": "Point", "coordinates": [48.2181151, 22.0823558]}, "properties": {"Place_name": "Kisv\u00e1rda"}}, {"type": "feature", "geometry": {"type": "Point", "coordinates": [47.5250909, 19.1660152]}, "properties": {"Place_name": "R\u00e1kosszentmih\u00e1ly"}}, {"type": "feature", "geometry": {"type": "Point", "coordinates": [48.6835688, 22.1430035]}, "properties": {"Place_name": "Szenteske"}}, {"type": "feature", "geometry": {"type": "Point", "coordinates": [46.806202, 18.9167877]}, "properties": {"Place_name": "Dunaf\u00f6ldv\u00e1r"}}, {"type": "feature", "geometry": {"type": "Point", "coordinates": [48.0497052, 21.7087174]}, "properties": {"Place_name": "K\u00f3taj"}}, {"type": "feature", "geometry": {"type": "Point", "coordinates": [47.7150521, 24.4396734]}, "properties": {"Place_name": "Felsovis\u00f3"}}, {"type": "feature", "geometry": {"type": "Point", "coordinates": [48.433056, 22.683889]}, "properties": {"Place_name": "V\u00e1rpal\u00e1nka"}}, {"type": "feature", "geometry": {"type": "Point", "coordinates": [48.3504123, 22.9020738]}, "properties": {"Place_name": "Dr\u00e1gab\u00e1tfalva"}}, {"type": "feature", "geometry": {"type": "Point", "coordinates": [48.004413, 23.8349311]}, "properties": {"Place_name": "Als\u00f3apsa"}}, {"type": "feature", "geometry": {"type": "Point", "coordinates": [48.3117809, 23.041894]}, "properties": {"Place_name": "Irsava"}}, {"type": "feature", "geometry": {"type": "Point", "coordinates": [48.5982586, 22.5708367]}, "properties": {"Place_name": "Nagygajdos"}}, {"type": "feature", "geometry": {"type": "Point", "coordinates": [48.2679203, 23.4324536]}, "properties": {"Place_name": "Herincse"}}, {"type": "feature", "geometry": {"type": "Point", "coordinates": [48.77244719999999, 23.0974009]}, "properties": {"Place_name": "Als\u00f3verecke"}}, {"type": "feature", "geometry": {"type": "Point", "coordinates": [47.0903328, 19.0107327]}, "properties": {"Place_name": "D\u00f6ms\u00f6d"}}, {"type": "feature", "geometry": {"type": "Point", "coordinates": [48.5825973, 22.2094274]}, "properties": {"Place_name": "Botfalva"}}, {"type": "feature", "geometry": {"type": "Point", "coordinates": [47.0313217, 20.9595443]}, "properties": {"Place_name": "D\u00e9vav\u00e1nya"}}, {"type": "feature", "geometry": {"type": "Point", "coordinates": [46.2530102, 20.1414253]}, "properties": {"Place_name": "Szeged"}}, {"type": "feature", "geometry": {"type": "Point", "coordinates": [48.1548154, 18.2230926]}, "properties": {"Place_name": "Csornok"}}, {"type": "feature", "geometry": {"type": "Point", "coordinates": [48.5452009, 20.7618268]}, "properties": {"Place_name": "Komj\u00e1ti"}}, {"type": "feature", "geometry": {"type": "Point", "coordinates": [48.18954129999999, 17.7266636]}, "properties": {"Place_name": "Gal\u00e1nta"}}, {"type": "feature", "geometry": {"type": "Point", "coordinates": [48.0711866, 19.2937136]}, "properties": {"Place_name": "Balassagyarmat"}}, {"type": "feature", "geometry": {"type": "Point", "coordinates": [48.8291365, 22.462436]}, "properties": {"Place_name": "Mircse"}}, {"type": "feature", "geometry": {"type": "Point", "coordinates": [48.5976622, 21.1673945]}, "properties": {"Place_name": "Nagyida"}}, {"type": "feature", "geometry": {"type": "Point", "coordinates": [47.4281229, 19.209843]}, "properties": {"Place_name": "Pestszentl?rinc"}}, {"type": "feature", "geometry": {"type": "Point", "coordinates": [48.15096610000001, 23.6267459]}, "properties": {"Place_name": "Uglya"}}, {"type": "feature", "geometry": {"type": "Point", "coordinates": [47.2524196, 16.9294867]}, "properties": {"Place_name": "S\u00e1rv\u00e1r"}}, {"type": "feature", "geometry": {"type": "Point", "coordinates": [47.927707, 23.8976506]}, "properties": {"Place_name": "M\u00e1ramarossziget"}}, {"type": "feature", "geometry": {"type": "Point", "coordinates": [48.9913689, 22.4381012]}, "properties": {"Place_name": "Ulicskriva"}}, {"type": "feature", "geometry": {"type": "Point", "coordinates": [50.24417, 21.77627]}, "properties": {"Place_name": "Kolbaszova"}}, {"type": "feature", "geometry": {"type": "Point", "coordinates": [48.04966839999999, 23.4827736]}, "properties": {"Place_name": "Bustyah\u00e1za"}}, {"type": "feature", "geometry": {"type": "Point", "coordinates": [46.3787007, 23.1021078]}, "properties": {"Place_name": "Fels?bisztra"}}, {"type": "feature", "geometry": {"type": "Point", "coordinates": [47.98488220000001, 23.9117575]}, "properties": {"Place_name": "K\u00f6z\u00e9papsa"}}, {"type": "feature", "geometry": {"type": "Point", "coordinates": [47.5393638, 19.1276419]}, "properties": {"Place_name": "Pest\u00fajhely"}}, {"type": "feature", "geometry": {"type": "Point", "coordinates": [45.4213914, -75.69431]}, "properties": {"Place_name": "V\u00e1c"}}, {"type": "feature", "geometry": {"type": "Point", "coordinates": [47.47544509999999, 19.2614256]}, "properties": {"Place_name": "R\u00e1koskereszt\u00far"}}, {"type": "feature", "geometry": {"type": "Point", "coordinates": [46.6364598, 14.3122246]}, "properties": {"Place_name": "Klagenfurt"}}, {"type": "feature", "geometry": {"type": "Point", "coordinates": [59.38099829999999, 53.828305]}, "properties": {"Place_name": "Berezova"}}, {"type": "feature", "geometry": {"type": "Point", "coordinates": [48.2376578, 22.9825789]}, "properties": {"Place_name": "Magyarkomj\u00e1t"}}, {"type": "feature", "geometry": {"type": "Point", "coordinates": [45.2396085, 19.8227056]}, "properties": {"Place_name": "\u00dajvid\u00e9k"}}, {"type": "feature", "geometry": {"type": "Point", "coordinates": [48.4249637, 21.9780619]}, "properties": {"Place_name": "Kir\u00e1lyhelmec"}}, {"type": "feature", "geometry": {"type": "Point", "coordinates": [52.0042181, 22.9198853]}, "properties": {"Place_name": "Dolha"}}, {"type": "feature", "geometry": {"type": "Point", "coordinates": [48.0711753, 23.0205587]}, "properties": {"Place_name": "Csepe"}}, {"type": "feature", "geometry": {"type": "Point", "coordinates": [48.4907371, 22.8097434]}, "properties": {"Place_name": "Szentmikl\u00f3s"}}, {"type": "feature", "geometry": {"type": "Point", "coordinates": [47.5288879, 21.6254485]}, "properties": {"Place_name": "Debrecen"}}, {"type": "feature", "geometry": {"type": "Point", "coordinates": [47.96181989999999, 24.0131328]}, "properties": {"Place_name": "Nagybocsk\u00f3"}}, {"type": "feature", "geometry": {"type": "Point", "coordinates": [48.0578657, 20.3500536]}, "properties": {"Place_name": "B\u00e9lap\u00e1tfalva"}}, {"type": "feature", "geometry": {"type": "Point", "coordinates": [48.14634909999999, 23.0302124]}, "properties": {"Place_name": "Nagysz\u00f6llos"}}, {"type": "feature", "geometry": {"type": "Point", "coordinates": [46.6735939, 21.0877309]}, "properties": {"Place_name": "B\u00e9k\u00e9scsaba"}}, {"type": "feature", "geometry": {"type": "Point", "coordinates": [47.1104551, 22.2906383]}, "properties": {"Place_name": "Mez?k\u00f6vesd"}}, {"type": "feature", "geometry": {"type": "Point", "coordinates": [46.1591341, 18.41852]}, "properties": {"Place_name": "P\u00e9csv\u00e1rad"}}, {"type": "feature", "geometry": {"type": "Point", "coordinates": [47.2482238, 18.8912626]}, "properties": {"Place_name": "Ercsi"}}, {"type": "feature", "geometry": {"type": "Point", "coordinates": [48.1204087, 23.3978165]}, "properties": {"Place_name": "Szeklence"}}, {"type": "feature", "geometry": {"type": "Point", "coordinates": [47.6145296, 21.3417333]}, "properties": {"Place_name": "Balmaz\u00fajv\u00e1ros"}}, {"type": "feature", "geometry": {"type": "Point", "coordinates": [47.8207081, 20.9051607]}, "properties": {"Place_name": "Mezocs\u00e1t"}}, {"type": "feature", "geometry": {"type": "Point", "coordinates": [48.5637949, 23.0332798]}, "properties": {"Place_name": "H\u00e1rsfalva"}}, {"type": "feature", "geometry": {"type": "Point", "coordinates": [48.0692045, 18.9487108]}, "properties": {"Place_name": "Ipolys\u00e1g"}}, {"type": "feature", "geometry": {"type": "Point", "coordinates": [47.799212, 18.7152845]}, "properties": {"Place_name": "P\u00e1rk\u00e1ny"}}, {"type": "feature", "geometry": {"type": "Point", "coordinates": [48.4559752, 21.682342]}, "properties": {"Place_name": "Kistoronya"}}, {"type": "feature", "geometry": {"type": "Point", "coordinates": [48.0988541, 22.948212]}, "properties": {"Place_name": "Tiszas\u00e1rv\u00e1r"}}, {"type": "feature", "geometry": {"type": "Point", "coordinates": [47.8390013, 22.130818]}, "properties": {"Place_name": "Ny\u00edrb\u00e1tor"}}, {"type": "feature", "geometry": {"type": "Point", "coordinates": [48.3562913, 23.080051]}, "properties": {"Place_name": "Ilonca"}}, {"type": "feature", "geometry": {"type": "Point", "coordinates": [48.0935237, 19.7999813]}, "properties": {"Place_name": "Salg\u00f3tarj\u00e1n"}}, {"type": "feature", "geometry": {"type": "Point", "coordinates": [48.7359203, 22.4723243]}, "properties": {"Place_name": "Perecseny"}}, {"type": "feature", "geometry": {"type": "Point", "coordinates": [48.0578657, 20.3500536]}, "properties": {"Place_name": "Beregpapfalva"}}, {"type": "feature", "geometry": {"type": "Point", "coordinates": [47.39414679999999, 18.4602445]}, "properties": {"Place_name": "Cs\u00e1kv\u00e1r"}}, {"type": "feature", "geometry": {"type": "Point", "coordinates": [48.1100924, 22.8417209]}, "properties": {"Place_name": "Tisza\u00fajlak"}}, {"type": "feature", "geometry": {"type": "Point", "coordinates": [50.19127570000001, 36.67539319999999]}, "properties": {"Place_name": "Ternova"}}]}